[
    {
        "placeName": "Bandipura National Park",
        "scientificName": "Cassia auriculata L."
    },
    {
        "placeName": "Bandipura National Park",
        "scientificName": "Pterolobium indicum A.Rich."
    },
    {
        "placeName": "Bandipura National Park",
        "scientificName": "Dodonaea viscose"
    },
    {
        "placeName": "Bandipura National Park",
        "scientificName": "Loranthus"
    },
    {
        "placeName": "Bandipura National Park",
        "scientificName": "Acacia procera (Roxb.) Willd."
    },
    {
        "placeName": "Bandipura National Park",
        "scientificName": "Azadirachta indica A. Juss."
    },
    {
        "placeName": "Bandipura National Park",
        "scientificName": "Acacia leucophloea (Roxb.) Willd."
    },
    {
        "placeName": "Bandipura National Park",
        "scientificName": "Cudranis javanensis"
    },
    {
        "placeName": "Bandipura National Park",
        "scientificName": "Ziziphus jujuba Miller"
    },
    {
        "placeName": "Bandipura National Park",
        "scientificName": "Cassia tora L."
    },
    {
        "placeName": "Bandipura National Park",
        "scientificName": "Cordia myxa L."
    },
    {
        "placeName": "Bandipura National Park",
        "scientificName": "Zizyphus trinervia"
    },
    {
        "placeName": "Bandipura National Park",
        "scientificName": "Strychnos potatorum L. fil."
    },
    {
        "placeName": "Bandipura National Park",
        "scientificName": "Cipadessa bacciferra"
    },
    {
        "placeName": "Bandipura National Park",
        "scientificName": "Erythroxylon monogynum"
    },
    {
        "placeName": "Bandipura National Park",
        "scientificName": "Hymenodictyon excelsum (Roxb.) Wall."
    },
    {
        "placeName": "Bandipura National Park",
        "scientificName": "Premna tomentosa Willd."
    },
    {
        "placeName": "Bandipura National Park",
        "scientificName": "Entada scandens (L.) Benth."
    },
    {
        "placeName": "Bandipura National Park",
        "scientificName": "Celastrus paniculatus"
    },
    {
        "placeName": "Bandipura National Park",
        "scientificName": "Trema orientalis (L.) Bl."
    },
    {
        "placeName": "Bandipura National Park",
        "scientificName": "Bischofia javanica Blume"
    },
    {
        "placeName": "Bandipura National Park",
        "scientificName": "Odina wodier Roxb."
    },
    {
        "placeName": "Bandipura National Park",
        "scientificName": "Ficus mysorensis Heyne ex Roth"
    },
    {
        "placeName": "Bandipura National Park",
        "scientificName": "Caesalpinia bonducella (L.) Fleming"
    },
    {
        "placeName": "Bandipura National Park",
        "scientificName": "Machilus macrantha Nees"
    },
    {
        "placeName": "Bandipura National Park",
        "scientificName": "Cordia macleodis"
    },
    {
        "placeName": "Bandipura National Park",
        "scientificName": "Terminalia paniculata Roth"
    },
    {
        "placeName": "Bandipura National Park",
        "scientificName": "Stephegyne parviflora"
    },
    {
        "placeName": "Bandipura National Park",
        "scientificName": "Spatholobus roxburghii Benth."
    },
    {
        "placeName": "Bandipura National Park",
        "scientificName": "Lantana camara L."
    },
    {
        "placeName": "Bandipura National Park",
        "scientificName": "Stereosperumum suaveolens"
    },
    {
        "placeName": "Bandipura National Park",
        "scientificName": "Ougeaia dalbergioides"
    },
    {
        "placeName": "Bandipura National Park",
        "scientificName": "Argyreia cuneata Willd. ex Ker-Gawl."
    },
    {
        "placeName": "Bandipura National Park",
        "scientificName": "Plumeria acutifolia Poir."
    },
    {
        "placeName": "Bandipura National Park",
        "scientificName": "Plumeria pentagyna"
    },
    {
        "placeName": "Bandipura National Park",
        "scientificName": "Randia dumeterum"
    },
    {
        "placeName": "Bandipura National Park",
        "scientificName": "Agave"
    },
    {
        "placeName": "Bandipura National Park",
        "scientificName": "Careya arborea Roxb."
    },
    {
        "placeName": "Bandipura National Park",
        "scientificName": "Terminalia tomentosa Wight & Arn."
    },
    {
        "placeName": "Bandipura National Park",
        "scientificName": "Streblus asper Lour."
    },
    {
        "placeName": "Bandipura National Park",
        "scientificName": "Elaeodendron glaucum (Rottb.) Pers."
    },
    {
        "placeName": "Bandipura National Park",
        "scientificName": "Erythrina suberosa Roxb."
    },
    {
        "placeName": "Bandipura National Park",
        "scientificName": "Butea frondosa Willd."
    },
    {
        "placeName": "Bandipura National Park",
        "scientificName": "Lagerstroemia lanceolata Wall."
    },
    {
        "placeName": "Bandipura National Park",
        "scientificName": "Vitex altissima L.f."
    },
    {
        "placeName": "Bandipura National Park",
        "scientificName": "Indigoferra pulchella"
    },
    {
        "placeName": "Bandipura National Park",
        "scientificName": "Eugenia jambolana Lam."
    },
    {
        "placeName": "Bandipura National Park",
        "scientificName": "Eucalyptus"
    },
    {
        "placeName": "Bandipura National Park",
        "scientificName": "Stereosperumum xylocarpum"
    },
    {
        "placeName": "Bandipura National Park",
        "scientificName": "Opuntia dillenii (Ker Gawl.) Haw."
    },
    {
        "placeName": "Bandipura National Park",
        "scientificName": "Wendlandia"
    },
    {
        "placeName": "Bandipura National Park",
        "scientificName": "Michelia champaka"
    },
    {
        "placeName": "Bandipura National Park",
        "scientificName": "Cassia siamea Lam."
    },
    {
        "placeName": "Bandipura National Park",
        "scientificName": "Anona squamosa"
    },
    {
        "placeName": "Bandipura National Park",
        "scientificName": "Sterculia villosa Roxb."
    },
    {
        "placeName": "Bandipura National Park",
        "scientificName": "Ocimum sanctum L."
    },
    {
        "placeName": "Bandipura National Park",
        "scientificName": "Gmelina asiatica L."
    },
    {
        "placeName": "Bandipura National Park",
        "scientificName": "Gymnosporia montana (Roth) Benth."
    },
    {
        "placeName": "Bandipura National Park",
        "scientificName": "Diospyros melanoxylon Roxb."
    },
    {
        "placeName": "Bandipura National Park",
        "scientificName": "Adina cordifolia (Roxb.) Brandis"
    },
    {
        "placeName": "Bandipura National Park",
        "scientificName": "Bauhinia racemosa Lam."
    },
    {
        "placeName": "Bandipura National Park",
        "scientificName": "Alangium lamarckii Thwaites"
    },
    {
        "placeName": "Bandipura National Park",
        "scientificName": "Wrightia tinctoria"
    },
    {
        "placeName": "Bandipura National Park",
        "scientificName": "Spondias mangifera Willd."
    },
    {
        "placeName": "Bandipura National Park",
        "scientificName": "Curcuma longa L."
    },
    {
        "placeName": "Bandipura National Park",
        "scientificName": "Ficus glomerata Roxb."
    },
    {
        "placeName": "Bandipura National Park",
        "scientificName": "Caryota urens L."
    },
    {
        "placeName": "Bandipura National Park",
        "scientificName": "Kydia calycina Roxb."
    },
    {
        "placeName": "Bandipura National Park",
        "scientificName": "Bambusa arundinacea (Retz.) Willd."
    },
    {
        "placeName": "Bandipura National Park",
        "scientificName": "Dendrocalamus strictus (Roxb.) Nees"
    },
    {
        "placeName": "Bandipura National Park",
        "scientificName": "Gardenia gummifera L.f."
    },
    {
        "placeName": "Bandipura National Park",
        "scientificName": "Dalbergia paniculata"
    },
    {
        "placeName": "Bandipura National Park",
        "scientificName": "Terminalia arjuna (Roxb.) Wight & Arn."
    },
    {
        "placeName": "Bandipura National Park",
        "scientificName": "Albizzia odoratissima"
    },
    {
        "placeName": "Bandipura National Park",
        "scientificName": "Bombax malabaricum DC."
    },
    {
        "placeName": "Bandipura National Park",
        "scientificName": "Schleichera trijuga Willd."
    },
    {
        "placeName": "Bandipura National Park",
        "scientificName": "Lagerstroemia parviflora Roxb."
    },
    {
        "placeName": "Bandipura National Park",
        "scientificName": "Albizzia amara"
    },
    {
        "placeName": "Bandipura National Park",
        "scientificName": "Zizyphus xylopyrus"
    },
    {
        "placeName": "Bandipura National Park",
        "scientificName": "Andropogon serratus Miq."
    },
    {
        "placeName": "Bandipura National Park",
        "scientificName": "Anogeissus latifolia (DC.) Wallich ex Guill. et Perr."
    },
    {
        "placeName": "Bandipura National Park",
        "scientificName": "Phoenix humilis Royle ex Becc."
    },
    {
        "placeName": "Bandipura National Park",
        "scientificName": "Calotropis gigantea (L.) W. T. Aiton"
    },
    {
        "placeName": "Bandipura National Park",
        "scientificName": "Santalum album L."
    },
    {
        "placeName": "Bandipura National Park",
        "scientificName": "Schrebera swietenoides"
    },
    {
        "placeName": "Bandipura National Park",
        "scientificName": "Garuga pinnata Roxb."
    },
    {
        "placeName": "Bandipura National Park",
        "scientificName": "Ixora parviflora Lam."
    },
    {
        "placeName": "Bandipura National Park",
        "scientificName": "Abrus precatorius L."
    },
    {
        "placeName": "Bandipura National Park",
        "scientificName": "Solanum ferox L."
    },
    {
        "placeName": "Bandipura National Park",
        "scientificName": "Saccaopetalum tomentosa"
    },
    {
        "placeName": "Bandipura National Park",
        "scientificName": "Lagerstroemia flosreginae"
    },
    {
        "placeName": "Bandipura National Park",
        "scientificName": "Pterocarpus marsupium Roxb."
    },
    {
        "placeName": "Bandipura National Park",
        "scientificName": "Melia composita Benth."
    },
    {
        "placeName": "Bandipura National Park",
        "scientificName": "Fluggea microcarpa"
    },
    {
        "placeName": "Bandipura National Park",
        "scientificName": "Capparis stylosa DC."
    },
    {
        "placeName": "Bandipura National Park",
        "scientificName": "Tamarindus indica L."
    },
    {
        "placeName": "Bandipura National Park",
        "scientificName": "Diospyros montana Roxb."
    },
    {
        "placeName": "Bandipura National Park",
        "scientificName": "Jasminum"
    },
    {
        "placeName": "Bandipura National Park",
        "scientificName": "Wendlandia notoniana Wall. ex Wight & Arn."
    },
    {
        "placeName": "Bandipura National Park",
        "scientificName": "Cassia fistula L."
    },
    {
        "placeName": "Bandipura National Park",
        "scientificName": "Limonia acidissima L."
    },
    {
        "placeName": "Bandipura National Park",
        "scientificName": "Strychnos nuxvomica"
    },
    {
        "placeName": "Bandipura National Park",
        "scientificName": "Hydnocarpus wightiana Blume"
    },
    {
        "placeName": "Bandipura National Park",
        "scientificName": "Pavetta indica L."
    },
    {
        "placeName": "Bandipura National Park",
        "scientificName": "Ventilago madraspatna"
    },
    {
        "placeName": "Bandipura National Park",
        "scientificName": "Hemidesmus indicus (L.) R. Br."
    },
    {
        "placeName": "Bandipura National Park",
        "scientificName": "Solanum indicum L."
    },
    {
        "placeName": "Bandipura National Park",
        "scientificName": "Dragia volubilis"
    },
    {
        "placeName": "Bandipura National Park",
        "scientificName": "Ficus bengalensis"
    },
    {
        "placeName": "Bandipura National Park",
        "scientificName": "Terminalia chebula Retz."
    },
    {
        "placeName": "Bandipura National Park",
        "scientificName": "Sapindus emarginatus"
    },
    {
        "placeName": "Bandipura National Park",
        "scientificName": "Ficus religiosa L."
    },
    {
        "placeName": "Bandipura National Park",
        "scientificName": "Odina wodier Roxb."
    },
    {
        "placeName": "Bandipura National Park",
        "scientificName": "Clematis gouriana Roxb."
    },
    {
        "placeName": "Bandipura National Park",
        "scientificName": "Ochna squarrosa Kurz"
    },
    {
        "placeName": "Bandipura National Park",
        "scientificName": "Bridelia retusa (L.) A.Juss."
    },
    {
        "placeName": "Bandipura National Park",
        "scientificName": "Albizzia lebbeck"
    },
    {
        "placeName": "Bandipura National Park",
        "scientificName": "Ficus tsiela Roxb."
    },
    {
        "placeName": "Bandipura National Park",
        "scientificName": "Ficus infectoria Roxb."
    },
    {
        "placeName": "Bandipura National Park",
        "scientificName": "Dalbergia latifolia Roxb."
    },
    {
        "placeName": "Bandipura National Park",
        "scientificName": "Zizyphus rugosa"
    },
    {
        "placeName": "Bandipura National Park",
        "scientificName": "Fluggea spp"
    },
    {
        "placeName": "Bandipura National Park",
        "scientificName": "Aegle marmelos (L.) Correa"
    },
    {
        "placeName": "Bandipura National Park",
        "scientificName": "Acacia arabica (Lam.) Willd."
    },
    {
        "placeName": "Bandipura National Park",
        "scientificName": "Artocarpus integrifolia"
    },
    {
        "placeName": "Bandipura National Park",
        "scientificName": "Cryptolepis buchanani Roemer et Schultes"
    },
    {
        "placeName": "Bandipura National Park",
        "scientificName": "Caesaria tomentosa"
    },
    {
        "placeName": "Bandipura National Park",
        "scientificName": "Dalbergia lanceolata Zipp. ex Span."
    },
    {
        "placeName": "Bandipura National Park",
        "scientificName": "Pongamia glabra Vent."
    },
    {
        "placeName": "Bandipura National Park",
        "scientificName": "Bassia latifolia Roxb."
    },
    {
        "placeName": "Bandipura National Park",
        "scientificName": "Acacia intisa"
    },
    {
        "placeName": "Bandipura National Park",
        "scientificName": "Ficus asperrima Roxb."
    },
    {
        "placeName": "Bandipura National Park",
        "scientificName": "Bauhinia racemosa Lam."
    },
    {
        "placeName": "Bandipura National Park",
        "scientificName": "Ichnocarpus wightiana"
    },
    {
        "placeName": "Bandipura National Park",
        "scientificName": "Capparis horrida"
    },
    {
        "placeName": "Bandipura National Park",
        "scientificName": "Caesalpinia mimosoides Lam."
    },
    {
        "placeName": "Bandipura National Park",
        "scientificName": "Acacia catechu (L.f.) Willd."
    },
    {
        "placeName": "Bandipura National Park",
        "scientificName": "Gloriosa superba L."
    },
    {
        "placeName": "Bandipura National Park",
        "scientificName": "Protium saudatum"
    },
    {
        "placeName": "Bandipura National Park",
        "scientificName": "Holarrhena artidysenterica"
    },
    {
        "placeName": "Bandipura National Park",
        "scientificName": "Hellecteres isora"
    },
    {
        "placeName": "Bandipura National Park",
        "scientificName": "Vitex neugundo"
    },
    {
        "placeName": "Bandipura National Park",
        "scientificName": "Tabernaemontana heyneana Wall."
    },
    {
        "placeName": "Bandipura National Park",
        "scientificName": "Morinda tinctoria"
    },
    {
        "placeName": "Bandipura National Park",
        "scientificName": "Asparagus racemosus Willd."
    },
    {
        "placeName": "Bandipura National Park",
        "scientificName": "Jasminum arborescens Roxb."
    },
    {
        "placeName": "Bandipura National Park",
        "scientificName": "Cipadesa fruiticosa"
    },
    {
        "placeName": "Bandipura National Park",
        "scientificName": "Mangifera indica L."
    },
    {
        "placeName": "Bandipura National Park",
        "scientificName": "Lasiosiphon eriocephelus"
    },
    {
        "placeName": "Bandipura National Park",
        "scientificName": "Acacia suma (Roxb.) Voigt"
    },
    {
        "placeName": "Bandipura National Park",
        "scientificName": "Buchanania latifolia Roxb."
    },
    {
        "placeName": "Bandipura National Park",
        "scientificName": "Tectona grandis L.f."
    },
    {
        "placeName": "Bandipura National Park",
        "scientificName": "Glochidion neiligherrense"
    },
    {
        "placeName": "Bandipura National Park",
        "scientificName": "Flaccourtia aspiaria"
    },
    {
        "placeName": "Bandipura National Park",
        "scientificName": "Psidium guava"
    },
    {
        "placeName": "Bandipura National Park",
        "scientificName": "Terminalia belerica"
    },
    {
        "placeName": "Bandipura National Park",
        "scientificName": "Zizyphys oemoplia"
    },
    {
        "placeName": "Bandipura National Park",
        "scientificName": "Grewia tiliaefolia"
    },
    {
        "placeName": "Bandipura National Park",
        "scientificName": "Aristolochia indica L."
    },
    {
        "placeName": "Bandipura National Park",
        "scientificName": "Holoptelea integrifolia Planch."
    },
    {
        "placeName": "Bandipura National Park",
        "scientificName": "Leucas aspera (Willd.) Link"
    },
    {
        "placeName": "Bandipura National Park",
        "scientificName": "Abutilon indicum (L.) Sweet"
    },
    {
        "placeName": "Bandipura National Park",
        "scientificName": "Jatropha curcas L."
    },
    {
        "placeName": "placeName",
        "scientificName": "scientificName"
    },
    {
        "placeName": "Nagarhole National Park",
        "scientificName": "Kydia calycina Roxb."
    },
    {
        "placeName": "Nagarhole National Park",
        "scientificName": "Bambusa arundinacea (Retz.) Willd."
    },
    {
        "placeName": "Nagarhole National Park",
        "scientificName": "Holoptelea integrifolia Planch."
    },
    {
        "placeName": "Nagarhole National Park",
        "scientificName": "Dalbergia paniculata"
    },
    {
        "placeName": "Nagarhole National Park",
        "scientificName": "Acacia leucophloea (Roxb.) Willd."
    },
    {
        "placeName": "Nagarhole National Park",
        "scientificName": "Cudranis javanensis"
    },
    {
        "placeName": "Nagarhole National Park",
        "scientificName": "Cordia myxa L."
    },
    {
        "placeName": "Nagarhole National Park",
        "scientificName": "Zizyphus trinervia"
    },
    {
        "placeName": "Nagarhole National Park",
        "scientificName": "Zizyphus xylopyrus"
    },
    {
        "placeName": "Nagarhole National Park",
        "scientificName": "Cipadessa bacciferra"
    },
    {
        "placeName": "Nagarhole National Park",
        "scientificName": "Erythroxylon monogynum"
    },
    {
        "placeName": "Nagarhole National Park",
        "scientificName": "Anogeissus latifolia (DC.) Wallich ex Guill. et Perr."
    },
    {
        "placeName": "Nagarhole National Park",
        "scientificName": "Premna tomentosa Willd."
    },
    {
        "placeName": "Nagarhole National Park",
        "scientificName": "Celastrus paniculatus"
    },
    {
        "placeName": "Nagarhole National Park",
        "scientificName": "Abrus precatorius L."
    },
    {
        "placeName": "Nagarhole National Park",
        "scientificName": "Wrightia tinctoria"
    },
    {
        "placeName": "Nagarhole National Park",
        "scientificName": "Spondias mangifera Willd."
    },
    {
        "placeName": "Nagarhole National Park",
        "scientificName": "Cordia macleodis"
    },
    {
        "placeName": "Nagarhole National Park",
        "scientificName": "Ficus religiosa L."
    },
    {
        "placeName": "Nagarhole National Park",
        "scientificName": "Cryptolepis buchanani Roemer et Schultes"
    },
    {
        "placeName": "Nagarhole National Park",
        "scientificName": "Odina wodier Roxb."
    },
    {
        "placeName": "Nagarhole National Park",
        "scientificName": "Saccaopetalum tomentosa"
    },
    {
        "placeName": "Nagarhole National Park",
        "scientificName": "Pterolobium indicum A.Rich."
    },
    {
        "placeName": "Nagarhole National Park",
        "scientificName": "Schleichera trijuga Willd."
    },
    {
        "placeName": "Nagarhole National Park",
        "scientificName": "Acacia arabica (Lam.) Willd."
    },
    {
        "placeName": "Nagarhole National Park",
        "scientificName": "Ixora parviflora Lam."
    },
    {
        "placeName": "Nagarhole National Park",
        "scientificName": "Caesalpinia bonducella (L.) Fleming"
    },
    {
        "placeName": "Nagarhole National Park",
        "scientificName": "Solanum ferox L."
    },
    {
        "placeName": "Nagarhole National Park",
        "scientificName": "Artocarpus integrifolia"
    },
    {
        "placeName": "Nagarhole National Park",
        "scientificName": "Fluggea microcarpa"
    },
    {
        "placeName": "Nagarhole National Park",
        "scientificName": "Caryota urens L."
    },
    {
        "placeName": "Nagarhole National Park",
        "scientificName": "Terminalia paniculata Roth"
    },
    {
        "placeName": "Nagarhole National Park",
        "scientificName": "Diospyros montana Roxb."
    },
    {
        "placeName": "Nagarhole National Park",
        "scientificName": "Jasminum"
    },
    {
        "placeName": "Nagarhole National Park",
        "scientificName": "Dalbergia latifolia Roxb."
    },
    {
        "placeName": "Nagarhole National Park",
        "scientificName": "Zizyphus rugosa"
    },
    {
        "placeName": "Nagarhole National Park",
        "scientificName": "Capparis horrida"
    },
    {
        "placeName": "Nagarhole National Park",
        "scientificName": "Holarrhena artidysenterica"
    },
    {
        "placeName": "Nagarhole National Park",
        "scientificName": "Tabernaemontana heyneana Wall."
    },
    {
        "placeName": "Nagarhole National Park",
        "scientificName": "Morinda tinctoria"
    },
    {
        "placeName": "Nagarhole National Park",
        "scientificName": "Mangifera indica L."
    },
    {
        "placeName": "Nagarhole National Park",
        "scientificName": "Elaeodendron glaucum (Rottb.) Pers."
    },
    {
        "placeName": "Nagarhole National Park",
        "scientificName": "Acacia suma (Roxb.) Voigt"
    },
    {
        "placeName": "Nagarhole National Park",
        "scientificName": "Buchanania latifolia Roxb."
    },
    {
        "placeName": "Nagarhole National Park",
        "scientificName": "Vitex altissima L.f."
    },
    {
        "placeName": "Nagarhole National Park",
        "scientificName": "Eugenia jambolana Lam."
    },
    {
        "placeName": "Nagarhole National Park",
        "scientificName": "Hydnocarpus wightiana Blume"
    },
    {
        "placeName": "Nagarhole National Park",
        "scientificName": "Pavetta indica L."
    },
    {
        "placeName": "Nagarhole National Park",
        "scientificName": "Tectona grandis L.f."
    },
    {
        "placeName": "Nagarhole National Park",
        "scientificName": "Flaccourtia aspiaria"
    },
    {
        "placeName": "Nagarhole National Park",
        "scientificName": "Terminalia belerica"
    },
    {
        "placeName": "Nagarhole National Park",
        "scientificName": "Terminalia arjuna (Roxb.) Wight & Arn."
    },
    {
        "placeName": "Nagarhole National Park",
        "scientificName": "Adina cordifolia (Roxb.) Brandis"
    },
    {
        "placeName": "Nagarhole National Park",
        "scientificName": "Cassia tora L."
    },
    {
        "placeName": "Nagarhole National Park",
        "scientificName": "Strychnos potatorum L. fil."
    },
    {
        "placeName": "Nagarhole National Park",
        "scientificName": "Schrebera swietenoides"
    },
    {
        "placeName": "Nagarhole National Park",
        "scientificName": "Bischofia javanica Blume"
    },
    {
        "placeName": "Nagarhole National Park",
        "scientificName": "Dragia volubilis"
    },
    {
        "placeName": "Nagarhole National Park",
        "scientificName": "Garuga pinnata Roxb."
    },
    {
        "placeName": "Nagarhole National Park",
        "scientificName": "Ficus glomerata Roxb."
    },
    {
        "placeName": "Nagarhole National Park",
        "scientificName": "Bridelia retusa (L.) A.Juss."
    },
    {
        "placeName": "Nagarhole National Park",
        "scientificName": "Stereosperumum suaveolens"
    },
    {
        "placeName": "Nagarhole National Park",
        "scientificName": "Plumeria acutifolia Poir."
    },
    {
        "placeName": "Nagarhole National Park",
        "scientificName": "Acacia catechu (L.f.) Willd."
    },
    {
        "placeName": "Nagarhole National Park",
        "scientificName": "Protium saudatum"
    },
    {
        "placeName": "Nagarhole National Park",
        "scientificName": "Jasminum arborescens Roxb."
    },
    {
        "placeName": "Nagarhole National Park",
        "scientificName": "Streblus asper Lour."
    },
    {
        "placeName": "Nagarhole National Park",
        "scientificName": "Stereosperumum xylocarpum"
    },
    {
        "placeName": "Nagarhole National Park",
        "scientificName": "Opuntia dillenii (Ker Gawl.) Haw."
    },
    {
        "placeName": "Nagarhole National Park",
        "scientificName": "Ventilago madraspatna"
    },
    {
        "placeName": "Nagarhole National Park",
        "scientificName": "Michelia champaka"
    },
    {
        "placeName": "Nagarhole National Park",
        "scientificName": "Psidium guava"
    },
    {
        "placeName": "Nagarhole National Park",
        "scientificName": "Hemidesmus indicus (L.) R. Br."
    },
    {
        "placeName": "Nagarhole National Park",
        "scientificName": "Ocimum sanctum L."
    },
    {
        "placeName": "Nagarhole National Park",
        "scientificName": "Aristolochia indica L."
    },
    {
        "placeName": "Nagarhole National Park",
        "scientificName": "Gymnosporia montana (Roth) Benth."
    },
    {
        "placeName": "Nagarhole National Park",
        "scientificName": "Dendrocalamus strictus (Roxb.) Nees"
    },
    {
        "placeName": "Nagarhole National Park",
        "scientificName": "Leucas aspera (Willd.) Link"
    },
    {
        "placeName": "Nagarhole National Park",
        "scientificName": "Diospyros melanoxylon Roxb."
    },
    {
        "placeName": "Nagarhole National Park",
        "scientificName": "Aegle marmelos (L.) Correa"
    },
    {
        "placeName": "Nagarhole National Park",
        "scientificName": "Bombax malabaricum DC."
    },
    {
        "placeName": "Nagarhole National Park",
        "scientificName": "Calotropis gigantea (L.) W. T. Aiton"
    },
    {
        "placeName": "Nagarhole National Park",
        "scientificName": "Santalum album L."
    },
    {
        "placeName": "Nagarhole National Park",
        "scientificName": "Odina wodier Roxb."
    },
    {
        "placeName": "Nagarhole National Park",
        "scientificName": "Alangium lamarckii Thwaites"
    },
    {
        "placeName": "Nagarhole National Park",
        "scientificName": "Ficus bengalensis"
    },
    {
        "placeName": "Nagarhole National Park",
        "scientificName": "Machilus macrantha Nees"
    },
    {
        "placeName": "Nagarhole National Park",
        "scientificName": "Sapindus emarginatus"
    },
    {
        "placeName": "Nagarhole National Park",
        "scientificName": "Curcuma longa L."
    },
    {
        "placeName": "Nagarhole National Park",
        "scientificName": "Clematis gouriana Roxb."
    },
    {
        "placeName": "Nagarhole National Park",
        "scientificName": "Pterocarpus marsupium Roxb."
    },
    {
        "placeName": "Nagarhole National Park",
        "scientificName": "Capparis stylosa DC."
    },
    {
        "placeName": "Nagarhole National Park",
        "scientificName": "Albizzia lebbeck"
    },
    {
        "placeName": "Nagarhole National Park",
        "scientificName": "Loranthus"
    },
    {
        "placeName": "Nagarhole National Park",
        "scientificName": "Ficus tsiela Roxb."
    },
    {
        "placeName": "Nagarhole National Park",
        "scientificName": "Spatholobus roxburghii Benth."
    },
    {
        "placeName": "Nagarhole National Park",
        "scientificName": "Acacia procera (Roxb.) Willd."
    },
    {
        "placeName": "Nagarhole National Park",
        "scientificName": "Lantana camara L."
    },
    {
        "placeName": "Nagarhole National Park",
        "scientificName": "Ougeaia dalbergioides"
    },
    {
        "placeName": "Nagarhole National Park",
        "scientificName": "Argyreia cuneata Willd. ex Ker-Gawl."
    },
    {
        "placeName": "Nagarhole National Park",
        "scientificName": "Bauhinia racemosa Lam."
    },
    {
        "placeName": "Nagarhole National Park",
        "scientificName": "Agave"
    },
    {
        "placeName": "Nagarhole National Park",
        "scientificName": "Careya arborea Roxb."
    },
    {
        "placeName": "Nagarhole National Park",
        "scientificName": "Hellecteres isora"
    },
    {
        "placeName": "Nagarhole National Park",
        "scientificName": "Cipadesa fruiticosa"
    },
    {
        "placeName": "Nagarhole National Park",
        "scientificName": "Lasiosiphon eriocephelus"
    },
    {
        "placeName": "Nagarhole National Park",
        "scientificName": "Erythrina suberosa Roxb."
    },
    {
        "placeName": "Nagarhole National Park",
        "scientificName": "Limonia acidissima L."
    },
    {
        "placeName": "Nagarhole National Park",
        "scientificName": "Strychnos nuxvomica"
    },
    {
        "placeName": "Nagarhole National Park",
        "scientificName": "Indigoferra pulchella"
    },
    {
        "placeName": "Nagarhole National Park",
        "scientificName": "Wendlandia"
    },
    {
        "placeName": "Nagarhole National Park",
        "scientificName": "Glochidion neiligherrense"
    },
    {
        "placeName": "Nagarhole National Park",
        "scientificName": "Cassia siamea Lam."
    },
    {
        "placeName": "Nagarhole National Park",
        "scientificName": "Anona squamosa"
    },
    {
        "placeName": "Nagarhole National Park",
        "scientificName": "Sterculia villosa Roxb."
    },
    {
        "placeName": "Nagarhole National Park",
        "scientificName": "Zizyphys oemoplia"
    },
    {
        "placeName": "Nagarhole National Park",
        "scientificName": "Solanum indicum L."
    },
    {
        "placeName": "Nagarhole National Park",
        "scientificName": "Grewia tiliaefolia"
    },
    {
        "placeName": "Nagarhole National Park",
        "scientificName": "Gmelina asiatica L."
    },
    {
        "placeName": "Nagarhole National Park",
        "scientificName": "Azadirachta indica A. Juss."
    },
    {
        "placeName": "Nagarhole National Park",
        "scientificName": "Gardenia gummifera L.f."
    },
    {
        "placeName": "Nagarhole National Park",
        "scientificName": "Abutilon indicum (L.) Sweet"
    },
    {
        "placeName": "Nagarhole National Park",
        "scientificName": "Jatropha curcas L."
    },
    {
        "placeName": "Nagarhole National Park",
        "scientificName": "Fluggea spp"
    },
    {
        "placeName": "Nagarhole National Park",
        "scientificName": "Albizzia odoratissima"
    },
    {
        "placeName": "Nagarhole National Park",
        "scientificName": "Zizyphus jujuba"
    },
    {
        "placeName": "Nagarhole National Park",
        "scientificName": "Lagerstroemia parviflora Roxb."
    },
    {
        "placeName": "Nagarhole National Park",
        "scientificName": "Albizzia amara"
    },
    {
        "placeName": "Nagarhole National Park",
        "scientificName": "Andropogon serratus Miq."
    },
    {
        "placeName": "Nagarhole National Park",
        "scientificName": "Hymenodictyon excelsum (Roxb.) Wall."
    },
    {
        "placeName": "Nagarhole National Park",
        "scientificName": "Phoenix humilis Royle ex Becc."
    },
    {
        "placeName": "Nagarhole National Park",
        "scientificName": "Entada scandens (L.) Benth."
    },
    {
        "placeName": "Nagarhole National Park",
        "scientificName": "Trema orientalis (L.) Bl."
    },
    {
        "placeName": "Nagarhole National Park",
        "scientificName": "Bauhinia racemosa Lam."
    },
    {
        "placeName": "Nagarhole National Park",
        "scientificName": "Ficus mysorensis Heyne ex Roth"
    },
    {
        "placeName": "Nagarhole National Park",
        "scientificName": "Terminalia chebula Retz."
    },
    {
        "placeName": "Nagarhole National Park",
        "scientificName": "Caesaria tomentosa"
    },
    {
        "placeName": "Nagarhole National Park",
        "scientificName": "Dalbergia lanceolata Zipp. ex Span."
    },
    {
        "placeName": "Nagarhole National Park",
        "scientificName": "Ochna squarrosa Kurz"
    },
    {
        "placeName": "Nagarhole National Park",
        "scientificName": "Lagerstroemia flosreginae"
    },
    {
        "placeName": "Nagarhole National Park",
        "scientificName": "Pongamia glabra Vent."
    },
    {
        "placeName": "Nagarhole National Park",
        "scientificName": "Cassia auriculata L."
    },
    {
        "placeName": "Nagarhole National Park",
        "scientificName": "Melia composita Benth."
    },
    {
        "placeName": "Nagarhole National Park",
        "scientificName": "Dodonaea viscose"
    },
    {
        "placeName": "Nagarhole National Park",
        "scientificName": "Tamarindus indica L."
    },
    {
        "placeName": "Nagarhole National Park",
        "scientificName": "Bassia latifolia Roxb."
    },
    {
        "placeName": "Nagarhole National Park",
        "scientificName": "Ficus infectoria Roxb."
    },
    {
        "placeName": "Nagarhole National Park",
        "scientificName": "Stephegyne parviflora"
    },
    {
        "placeName": "Nagarhole National Park",
        "scientificName": "Acacia intisa"
    },
    {
        "placeName": "Nagarhole National Park",
        "scientificName": "Wendlandia notoniana Wall. ex Wight & Arn."
    },
    {
        "placeName": "Nagarhole National Park",
        "scientificName": "Cassia fistula L."
    },
    {
        "placeName": "Nagarhole National Park",
        "scientificName": "Ficus asperrima Roxb."
    },
    {
        "placeName": "Nagarhole National Park",
        "scientificName": "Plumeria pentagyna"
    },
    {
        "placeName": "Nagarhole National Park",
        "scientificName": "Randia dumeterum"
    },
    {
        "placeName": "Nagarhole National Park",
        "scientificName": "Ichnocarpus wightiana"
    },
    {
        "placeName": "Nagarhole National Park",
        "scientificName": "Caesalpinia mimosoides Lam."
    },
    {
        "placeName": "Nagarhole National Park",
        "scientificName": "Gloriosa superba L."
    },
    {
        "placeName": "Nagarhole National Park",
        "scientificName": "Vitex neugundo"
    },
    {
        "placeName": "Nagarhole National Park",
        "scientificName": "Asparagus racemosus Willd."
    },
    {
        "placeName": "Nagarhole National Park",
        "scientificName": "Terminalia tomentosa Wight & Arn."
    },
    {
        "placeName": "Nagarhole National Park",
        "scientificName": "Butea frondosa Willd."
    },
    {
        "placeName": "Nagarhole National Park",
        "scientificName": "Lagerstroemia lanceolata Wall."
    },
    {
        "placeName": "Nagarhole National Park",
        "scientificName": "Eucalyptus"
    },
    {
        "placeName": "placeName",
        "scientificName": "scientificName"
    },
    {
        "placeName": "Mudumalai National Park",
        "scientificName": "Abutilon reflexum (Juss. ex Cav.) Sweet"
    },
    {
        "placeName": "Mudumalai National Park",
        "scientificName": "Acacia caesia (L.) Willd."
    },
    {
        "placeName": "Mudumalai National Park",
        "scientificName": "Acacia intsia (L.) Willd."
    },
    {
        "placeName": "Mudumalai National Park",
        "scientificName": "Acacia nilotica subsp.  indica(Benth.)  Brenan"
    },
    {
        "placeName": "Mudumalai National Park",
        "scientificName": "Acacia sinuata (Lour.) Merr."
    },
    {
        "placeName": "Mudumalai National Park",
        "scientificName": "Acalypha indica L."
    },
    {
        "placeName": "Mudumalai National Park",
        "scientificName": "Achyranthes aspera L."
    },
    {
        "placeName": "Mudumalai National Park",
        "scientificName": "Acmella paniculata (Wall. ex DC.) R.K. Jansen"
    },
    {
        "placeName": "Mudumalai National Park",
        "scientificName": "Acorus calamus L."
    },
    {
        "placeName": "Mudumalai National Park",
        "scientificName": "Actinodaphne salicina Meisn."
    },
    {
        "placeName": "Mudumalai National Park",
        "scientificName": "Aegle marmelos (L.) Correa"
    },
    {
        "placeName": "Mudumalai National Park",
        "scientificName": "Aerva lanata (L.) Juss."
    },
    {
        "placeName": "Mudumalai National Park",
        "scientificName": "Agave americana L."
    },
    {
        "placeName": "Mudumalai National Park",
        "scientificName": "Aglaia elaeagnoidea (A.Juss.) Benth."
    },
    {
        "placeName": "Mudumalai National Park",
        "scientificName": "Ailanthus excelsa Roxb."
    },
    {
        "placeName": "Mudumalai National Park",
        "scientificName": "Alangium salviifolium (L.f.) Wangerin"
    },
    {
        "placeName": "Mudumalai National Park",
        "scientificName": "Albizia amara (Roxb.) B.Boivin."
    },
    {
        "placeName": "Mudumalai National Park",
        "scientificName": "Albizia lebbeck (L.) Willd."
    },
    {
        "placeName": "Mudumalai National Park",
        "scientificName": "Allamanda cathartica L."
    },
    {
        "placeName": "Mudumalai National Park",
        "scientificName": "Allmania nodiflora (L.) R.Br. ex Wight"
    },
    {
        "placeName": "Mudumalai National Park",
        "scientificName": "Allophylus serratus (Hiern) Kurz"
    },
    {
        "placeName": "Mudumalai National Park",
        "scientificName": "Alstonia scholaris (L.) R.Br."
    },
    {
        "placeName": "Mudumalai National Park",
        "scientificName": "Alstonia venenata R.Br."
    },
    {
        "placeName": "Mudumalai National Park",
        "scientificName": "Alternanthera sessilis (L.) R.Br. ex DC."
    },
    {
        "placeName": "Mudumalai National Park",
        "scientificName": "Amaranthus spinosus L."
    },
    {
        "placeName": "Mudumalai National Park",
        "scientificName": "Amaranthus viridis L."
    },
    {
        "placeName": "Mudumalai National Park",
        "scientificName": "Anacardium occidentale L."
    },
    {
        "placeName": "Mudumalai National Park",
        "scientificName": "Anaphalis wightiana (Wall. ex DC.) DC."
    },
    {
        "placeName": "Mudumalai National Park",
        "scientificName": "Andrographis paniculata (Burm.f.) Nees"
    },
    {
        "placeName": "Mudumalai National Park",
        "scientificName": "Anisomeles malabarica (L) R.Br. ex Sims"
    },
    {
        "placeName": "Mudumalai National Park",
        "scientificName": "Anogeissus latifolia (Roxb. ex DC.) Wall. ex Guillem. & Perr."
    },
    {
        "placeName": "Mudumalai National Park",
        "scientificName": "Argemone mexicana L."
    },
    {
        "placeName": "Mudumalai National Park",
        "scientificName": "Argyreia cuneata Ker Gawl."
    },
    {
        "placeName": "Mudumalai National Park",
        "scientificName": "Argyreia hirsuta Arn."
    },
    {
        "placeName": "Mudumalai National Park",
        "scientificName": "Arisaema leschenaultii Blume"
    },
    {
        "placeName": "Mudumalai National Park",
        "scientificName": "Arisaema tortuosum (Wall.) Schott"
    },
    {
        "placeName": "Mudumalai National Park",
        "scientificName": "Aristolochia bracteolata Lam."
    },
    {
        "placeName": "Mudumalai National Park",
        "scientificName": "Aristolochia indica L."
    },
    {
        "placeName": "Mudumalai National Park",
        "scientificName": "Aristolochia ringens Vahl"
    },
    {
        "placeName": "Mudumalai National Park",
        "scientificName": "Artocarpus heterophyllus  Lam."
    },
    {
        "placeName": "Mudumalai National Park",
        "scientificName": "Artocarpus hirsutus Lam."
    },
    {
        "placeName": "Mudumalai National Park",
        "scientificName": "Asclepias curassavica L."
    },
    {
        "placeName": "Mudumalai National Park",
        "scientificName": "Asparagus racemosus Willd."
    },
    {
        "placeName": "Mudumalai National Park",
        "scientificName": "Atalantia monophylla DC."
    },
    {
        "placeName": "Mudumalai National Park",
        "scientificName": "Atalantia wightii Yu. Tanaka"
    },
    {
        "placeName": "Mudumalai National Park",
        "scientificName": "Azadirachta indica A.Juss."
    },
    {
        "placeName": "Mudumalai National Park",
        "scientificName": "Bacopa monnieri (L.) Wettst."
    },
    {
        "placeName": "Mudumalai National Park",
        "scientificName": "Baliospermum solanifolium (Burm.f.) Suresh"
    },
    {
        "placeName": "Mudumalai National Park",
        "scientificName": "Bambusa bambos (L.) Voss"
    },
    {
        "placeName": "Mudumalai National Park",
        "scientificName": "Barleria prionitis L."
    },
    {
        "placeName": "Mudumalai National Park",
        "scientificName": "Basella alba L."
    },
    {
        "placeName": "Mudumalai National Park",
        "scientificName": "Bauhinia purpurea L."
    },
    {
        "placeName": "Mudumalai National Park",
        "scientificName": "Bauhinia racemosa Lam."
    },
    {
        "placeName": "Mudumalai National Park",
        "scientificName": "Begonia malabarica Lam."
    },
    {
        "placeName": "Mudumalai National Park",
        "scientificName": "Benkara malabarica (Lam.) Tirveng."
    },
    {
        "placeName": "Mudumalai National Park",
        "scientificName": "Bidens triplinervia Kunth"
    },
    {
        "placeName": "Mudumalai National Park",
        "scientificName": "Biophytum intermedium Wight"
    },
    {
        "placeName": "Mudumalai National Park",
        "scientificName": "Biophytum santanderense R.Knuth"
    },
    {
        "placeName": "Mudumalai National Park",
        "scientificName": "Biophytum sensitivum (L.) DC."
    },
    {
        "placeName": "Mudumalai National Park",
        "scientificName": "Bischofia javanica Blume"
    },
    {
        "placeName": "Mudumalai National Park",
        "scientificName": "Bixa orellana L."
    },
    {
        "placeName": "Mudumalai National Park",
        "scientificName": "Blainvillea rhomboidea Cass."
    },
    {
        "placeName": "Mudumalai National Park",
        "scientificName": "Blepharis maderaspatensis (L.) B.Heyne ex Roth"
    },
    {
        "placeName": "Mudumalai National Park",
        "scientificName": "Blumea lacera (Burm.f.) DC."
    },
    {
        "placeName": "Mudumalai National Park",
        "scientificName": "Boerhavia diffusa L."
    },
    {
        "placeName": "Mudumalai National Park",
        "scientificName": "Bombax ceiba L."
    },
    {
        "placeName": "Mudumalai National Park",
        "scientificName": "Borassus flabellifer L."
    },
    {
        "placeName": "Mudumalai National Park",
        "scientificName": "Boswellia serrata Roxb. ex Colebr."
    },
    {
        "placeName": "Mudumalai National Park",
        "scientificName": "Breynia retusa (Dennst.) Alston"
    },
    {
        "placeName": "Mudumalai National Park",
        "scientificName": "Bridelia crenulata Roxb."
    },
    {
        "placeName": "Mudumalai National Park",
        "scientificName": "Bridelia retusa (L.) A.Juss."
    },
    {
        "placeName": "Mudumalai National Park",
        "scientificName": "Bupleurum plantaginifolium Wight"
    },
    {
        "placeName": "Mudumalai National Park",
        "scientificName": "Butea monosperma (Lam.) Taub."
    },
    {
        "placeName": "Mudumalai National Park",
        "scientificName": "Cadaba fruticosa (L.) Druce"
    },
    {
        "placeName": "Mudumalai National Park",
        "scientificName": "Cadaba trifoliata Wight & Arn."
    },
    {
        "placeName": "Mudumalai National Park",
        "scientificName": "Caesalpinia bonduc (L.) Roxb."
    },
    {
        "placeName": "Mudumalai National Park",
        "scientificName": "Callicarpa tomentosa (L.) L."
    },
    {
        "placeName": "Mudumalai National Park",
        "scientificName": "Calotropis gigantea (L.) Dryand."
    },
    {
        "placeName": "Mudumalai National Park",
        "scientificName": "Canarium strictum Roxb."
    },
    {
        "placeName": "Mudumalai National Park",
        "scientificName": "Canna indica L."
    },
    {
        "placeName": "Mudumalai National Park",
        "scientificName": "Canthium coromandelicum (Burm.f.) Alston"
    },
    {
        "placeName": "Mudumalai National Park",
        "scientificName": "Capparis diversifolia Wight & Arn."
    },
    {
        "placeName": "Mudumalai National Park",
        "scientificName": "Caralluma adscendens var. attenuata (Wight) Grav. & Mayur."
    },
    {
        "placeName": "Mudumalai National Park",
        "scientificName": "Caralluma attenuata Wight"
    },
    {
        "placeName": "Mudumalai National Park",
        "scientificName": "Caralluma umbellata Haw."
    },
    {
        "placeName": "Mudumalai National Park",
        "scientificName": "Cardiospermum halicacabum L."
    },
    {
        "placeName": "Mudumalai National Park",
        "scientificName": "Cardiospermum halicacabum L. var. luridum (Blume)"
    },
    {
        "placeName": "Mudumalai National Park",
        "scientificName": "Careya arborea Roxb."
    },
    {
        "placeName": "Mudumalai National Park",
        "scientificName": "Carica papaya L."
    },
    {
        "placeName": "Mudumalai National Park",
        "scientificName": "Carissa carandas L."
    },
    {
        "placeName": "Mudumalai National Park",
        "scientificName": "Carissa spinarum L."
    },
    {
        "placeName": "Mudumalai National Park",
        "scientificName": "Cascabela thevetia (L.) Lippold"
    },
    {
        "placeName": "Mudumalai National Park",
        "scientificName": "Cassia fistula L."
    },
    {
        "placeName": "Mudumalai National Park",
        "scientificName": "Cassine glauca (Rottb.) Kuntze"
    },
    {
        "placeName": "Mudumalai National Park",
        "scientificName": "Catharanthus roseus (L.) G.Don"
    },
    {
        "placeName": "Mudumalai National Park",
        "scientificName": "Catunaregam spinosa (Thunb.) Tirveng."
    },
    {
        "placeName": "Mudumalai National Park",
        "scientificName": "Celosia argentea L."
    },
    {
        "placeName": "Mudumalai National Park",
        "scientificName": "Celtis philippensis Blanco"
    },
    {
        "placeName": "Mudumalai National Park",
        "scientificName": "Celtis tetrandra Roxb."
    },
    {
        "placeName": "Mudumalai National Park",
        "scientificName": "Centella asiatica (L.) Urb."
    },
    {
        "placeName": "Mudumalai National Park",
        "scientificName": "Ceropegia barnesii E.A.Bruce & Chatterjee"
    },
    {
        "placeName": "Mudumalai National Park",
        "scientificName": "Chloroxylon swietenia DC."
    },
    {
        "placeName": "Mudumalai National Park",
        "scientificName": "Chrysopogon zizanioides (L.) Roberty"
    },
    {
        "placeName": "Mudumalai National Park",
        "scientificName": "Cinnamomum cassia (L.) J.Presl"
    },
    {
        "placeName": "Mudumalai National Park",
        "scientificName": "Cinnamomum verum J.Presl"
    },
    {
        "placeName": "Mudumalai National Park",
        "scientificName": "Cipadessa baccifera (Roth) Miq."
    },
    {
        "placeName": "Mudumalai National Park",
        "scientificName": "Cissus quadrangularis L."
    },
    {
        "placeName": "Mudumalai National Park",
        "scientificName": "Cissus vitiginea L."
    },
    {
        "placeName": "Mudumalai National Park",
        "scientificName": "Clausena dentata (Willd.) Roem."
    },
    {
        "placeName": "Mudumalai National Park",
        "scientificName": "Cleistanthus collinus (Roxb.) Benth. ex Hook.f."
    },
    {
        "placeName": "Mudumalai National Park",
        "scientificName": "Clematis gouriana Roxb. ex DC."
    },
    {
        "placeName": "Mudumalai National Park",
        "scientificName": "Clematis simplicifolia Qureshi & Chaudhri"
    },
    {
        "placeName": "Mudumalai National Park",
        "scientificName": "Clematis theobromina Dunn"
    },
    {
        "placeName": "Mudumalai National Park",
        "scientificName": "Cleome felina L.f."
    },
    {
        "placeName": "Mudumalai National Park",
        "scientificName": "Cleome gynandra L."
    },
    {
        "placeName": "Mudumalai National Park",
        "scientificName": "Cleome monophylla L."
    },
    {
        "placeName": "Mudumalai National Park",
        "scientificName": "Cleome viscosa L."
    },
    {
        "placeName": "Mudumalai National Park",
        "scientificName": "Clerodendrum chinense (Osbeck) Mabb."
    },
    {
        "placeName": "Mudumalai National Park",
        "scientificName": "Clerodendrum indicum (L.) Kuntze"
    },
    {
        "placeName": "Mudumalai National Park",
        "scientificName": "Clerodendrum trichotomum Thunb."
    },
    {
        "placeName": "Mudumalai National Park",
        "scientificName": "Coccinia grandis (L.) Voigt"
    },
    {
        "placeName": "Mudumalai National Park",
        "scientificName": "Cocculus hirsutus (L.) W.Theob."
    },
    {
        "placeName": "Mudumalai National Park",
        "scientificName": "Cochlospermum religiosum (L.) Alston"
    },
    {
        "placeName": "Mudumalai National Park",
        "scientificName": "Cocos nucifera L."
    },
    {
        "placeName": "Mudumalai National Park",
        "scientificName": "Coldenia procumbens L."
    },
    {
        "placeName": "Mudumalai National Park",
        "scientificName": "Combretum albidum G.Don"
    },
    {
        "placeName": "Mudumalai National Park",
        "scientificName": "Combretum paraguariense Ducke"
    },
    {
        "placeName": "Mudumalai National Park",
        "scientificName": "Commelina benghalensis L."
    },
    {
        "placeName": "Mudumalai National Park",
        "scientificName": "Commelina ensifolia R.Br."
    },
    {
        "placeName": "Mudumalai National Park",
        "scientificName": "Commiphora berryi (Arn.) Engl."
    },
    {
        "placeName": "Mudumalai National Park",
        "scientificName": "Commiphora caudata (Wight & Arn.) Engl."
    },
    {
        "placeName": "Mudumalai National Park",
        "scientificName": "Convolvulus arvensis L."
    },
    {
        "placeName": "Mudumalai National Park",
        "scientificName": "Corallocarpus epigaeus (Rottler) Hook.f."
    },
    {
        "placeName": "Mudumalai National Park",
        "scientificName": "Cordia dichotoma G.Forst."
    },
    {
        "placeName": "Mudumalai National Park",
        "scientificName": "Cordia sinensis Lam."
    },
    {
        "placeName": "Mudumalai National Park",
        "scientificName": "Coriandrum sativum L."
    },
    {
        "placeName": "Mudumalai National Park",
        "scientificName": "Coscinium fenestratum (Goetgh.) Colebr."
    },
    {
        "placeName": "Mudumalai National Park",
        "scientificName": "Crateva religiosa G.Forst."
    },
    {
        "placeName": "Mudumalai National Park",
        "scientificName": "Crotalaria pallida Aiton"
    },
    {
        "placeName": "Mudumalai National Park",
        "scientificName": "Crotalaria verrucosa L."
    },
    {
        "placeName": "Mudumalai National Park",
        "scientificName": "Cryptocarya lawsonii Gamble"
    },
    {
        "placeName": "Mudumalai National Park",
        "scientificName": "Cryptocarya stocksii Meisn."
    },
    {
        "placeName": "Mudumalai National Park",
        "scientificName": "Cucumis leiospermus (Wight & Arn.) Ghebret. &Thulin"
    },
    {
        "placeName": "Mudumalai National Park",
        "scientificName": "Curculigo orchioides Gaertn."
    },
    {
        "placeName": "Mudumalai National Park",
        "scientificName": "Curcuma longa L."
    },
    {
        "placeName": "Mudumalai National Park",
        "scientificName": "Curcuma montana Roxb."
    },
    {
        "placeName": "Mudumalai National Park",
        "scientificName": "Curcuma pseudomontana J.Graham."
    },
    {
        "placeName": "Mudumalai National Park",
        "scientificName": "Cuscuta reflexa Roxb."
    },
    {
        "placeName": "Mudumalai National Park",
        "scientificName": "Cyclea peltata (Lam.) Hook.f.& Thomson"
    },
    {
        "placeName": "Mudumalai National Park",
        "scientificName": "Cynodon dactylon (L.) Pers."
    },
    {
        "placeName": "Mudumalai National Park",
        "scientificName": "Cynoglossum zeylanicum (Vahl) Brand"
    },
    {
        "placeName": "Mudumalai National Park",
        "scientificName": "Cyperus rotundus L."
    },
    {
        "placeName": "Mudumalai National Park",
        "scientificName": "Dalbergia latifolia Roxb."
    },
    {
        "placeName": "Mudumalai National Park",
        "scientificName": "Dalbergia sissoides Wight & Arn."
    },
    {
        "placeName": "Mudumalai National Park",
        "scientificName": "Datura fastuosa L."
    },
    {
        "placeName": "Mudumalai National Park",
        "scientificName": "Datura innoxia Mill."
    },
    {
        "placeName": "Mudumalai National Park",
        "scientificName": "Datura metel L."
    },
    {
        "placeName": "Mudumalai National Park",
        "scientificName": "Delonix elata (L.) Gamble"
    },
    {
        "placeName": "Mudumalai National Park",
        "scientificName": "Dendrocalamus strictus (Roxb.) Nees"
    },
    {
        "placeName": "Mudumalai National Park",
        "scientificName": "Dendrophthoe falcata (L.f.) Ettingsh."
    },
    {
        "placeName": "Mudumalai National Park",
        "scientificName": "Desmodium parviflorum (Dalzell) H.Oshahi"
    },
    {
        "placeName": "Mudumalai National Park",
        "scientificName": "Desmodium pryonii DC."
    },
    {
        "placeName": "Mudumalai National Park",
        "scientificName": "Dillenia pentagyna Roxb."
    },
    {
        "placeName": "Mudumalai National Park",
        "scientificName": "Dioscorea oppositifolia L."
    },
    {
        "placeName": "Mudumalai National Park",
        "scientificName": "Dioscorea pentaphylla L."
    },
    {
        "placeName": "Mudumalai National Park",
        "scientificName": "Dioscorea tomentosa J. Koenig ex Spreng."
    },
    {
        "placeName": "Mudumalai National Park",
        "scientificName": "Diospyros malabarica (Desr.) Kostel"
    },
    {
        "placeName": "Mudumalai National Park",
        "scientificName": "Diospyros montana Roxb."
    },
    {
        "placeName": "Mudumalai National Park",
        "scientificName": "Diploclisia glaucescens (Blume) Diels"
    },
    {
        "placeName": "Mudumalai National Park",
        "scientificName": "Dodonaea viscosa (L.) Jacq."
    },
    {
        "placeName": "Mudumalai National Park",
        "scientificName": "Dregea volubilis (L.f.) Benth. ex Hook.f."
    },
    {
        "placeName": "Mudumalai National Park",
        "scientificName": "Dysoxylum malabaricum Bedd. ex C. DC."
    },
    {
        "placeName": "Mudumalai National Park",
        "scientificName": "Eclipta prostrata (L.) L."
    },
    {
        "placeName": "Mudumalai National Park",
        "scientificName": "Ehretia microphylla Lam."
    },
    {
        "placeName": "Mudumalai National Park",
        "scientificName": "Elaeocarpus tectorius (Lour.) Poir."
    },
    {
        "placeName": "Mudumalai National Park",
        "scientificName": "Elephantopus scaber L."
    },
    {
        "placeName": "Mudumalai National Park",
        "scientificName": "Embelia ribes Burm. f."
    },
    {
        "placeName": "Mudumalai National Park",
        "scientificName": "Emilia sonchifolia (L.) DC. ex DC."
    },
    {
        "placeName": "Mudumalai National Park",
        "scientificName": "Enicostema axillare (Poir. ex Lam.) A. Raynal"
    },
    {
        "placeName": "Mudumalai National Park",
        "scientificName": "Entada rheedii Spreng."
    },
    {
        "placeName": "Mudumalai National Park",
        "scientificName": "Eriolaena hookeriana Wight & Arn."
    },
    {
        "placeName": "Mudumalai National Park",
        "scientificName": "Erythrina stricta Roxb."
    },
    {
        "placeName": "Mudumalai National Park",
        "scientificName": "Erythrina variegata L."
    },
    {
        "placeName": "Mudumalai National Park",
        "scientificName": "Erythroxylum monogynum Roxb."
    },
    {
        "placeName": "Mudumalai National Park",
        "scientificName": "Eupatorium odoratissimum Hort."
    },
    {
        "placeName": "Mudumalai National Park",
        "scientificName": "Euphorbia antiquorum L."
    },
    {
        "placeName": "Mudumalai National Park",
        "scientificName": "Euphorbia heterophylla L."
    },
    {
        "placeName": "Mudumalai National Park",
        "scientificName": "Euphorbia hirta L."
    },
    {
        "placeName": "Mudumalai National Park",
        "scientificName": "Euphorbia prostrata Aiton"
    },
    {
        "placeName": "Mudumalai National Park",
        "scientificName": "Euphorbia tirucalli L."
    },
    {
        "placeName": "Mudumalai National Park",
        "scientificName": "Euphorbia tortilis Rottler ex Ainslie"
    },
    {
        "placeName": "Mudumalai National Park",
        "scientificName": "Evodia lunu-ankenda (Gaertn.) Merr."
    },
    {
        "placeName": "Mudumalai National Park",
        "scientificName": "Evolvulus alsinoides (L.) L."
    },
    {
        "placeName": "Mudumalai National Park",
        "scientificName": "Ficus benghalensis L."
    },
    {
        "placeName": "Mudumalai National Park",
        "scientificName": "Ficus callosa Willd."
    },
    {
        "placeName": "Mudumalai National Park",
        "scientificName": "Ficus hispida L.f."
    },
    {
        "placeName": "Mudumalai National Park",
        "scientificName": "Ficus microcarpa L.f."
    },
    {
        "placeName": "Mudumalai National Park",
        "scientificName": "Ficus mollis Vahl"
    },
    {
        "placeName": "Mudumalai National Park",
        "scientificName": "Ficus nervosa B.Heyne ex Roth"
    },
    {
        "placeName": "Mudumalai National Park",
        "scientificName": "Ficus racemosa L."
    },
    {
        "placeName": "Mudumalai National Park",
        "scientificName": "Ficus religiosa L."
    },
    {
        "placeName": "Mudumalai National Park",
        "scientificName": "Ficus virens Aiton"
    },
    {
        "placeName": "Mudumalai National Park",
        "scientificName": "Filicium decipiens (Wight & Arn.) Thwaites"
    },
    {
        "placeName": "Mudumalai National Park",
        "scientificName": "Flueggea leucopyrus Willd."
    },
    {
        "placeName": "Mudumalai National Park",
        "scientificName": "Gardenia resinifera Roth."
    },
    {
        "placeName": "Mudumalai National Park",
        "scientificName": "Gentiana pedicellata subsp. zeylanica (Griseb.) Halda"
    },
    {
        "placeName": "Mudumalai National Park",
        "scientificName": "Gisekia pharnaceoides L."
    },
    {
        "placeName": "Mudumalai National Park",
        "scientificName": "Glochidion ellipticum Wight"
    },
    {
        "placeName": "Mudumalai National Park",
        "scientificName": "Gloriosa superba L."
    },
    {
        "placeName": "Mudumalai National Park",
        "scientificName": "Glycosmis pentaphylla (Retz.) DC."
    },
    {
        "placeName": "Mudumalai National Park",
        "scientificName": "Gmelina asiatica L."
    },
    {
        "placeName": "Mudumalai National Park",
        "scientificName": "Gnidia glauca (Fresen.) Gilg"
    },
    {
        "placeName": "Mudumalai National Park",
        "scientificName": "Gomphrena serrata L."
    },
    {
        "placeName": "Mudumalai National Park",
        "scientificName": "Gordonia obtusa Wall. ex Wight"
    },
    {
        "placeName": "Mudumalai National Park",
        "scientificName": "Grewia carpinifolia Juss."
    },
    {
        "placeName": "Mudumalai National Park",
        "scientificName": "Grewia tiliifolia Vahl"
    },
    {
        "placeName": "Mudumalai National Park",
        "scientificName": "Gymnema  sylvestre (Retz) R.Br. ex Sm."
    },
    {
        "placeName": "Mudumalai National Park",
        "scientificName": "Gymnema decaisneanum Wight"
    },
    {
        "placeName": "Mudumalai National Park",
        "scientificName": "Gymnema montanum Hook.f."
    },
    {
        "placeName": "Mudumalai National Park",
        "scientificName": "Gymnosporia emarginata (Willd.) Thwaites"
    },
    {
        "placeName": "Mudumalai National Park",
        "scientificName": "Gyrocarpus americanus Jacq."
    },
    {
        "placeName": "Mudumalai National Park",
        "scientificName": "Halenia perrottetii Griseb."
    },
    {
        "placeName": "Mudumalai National Park",
        "scientificName": "Hedyotis leschenaultiana DC."
    },
    {
        "placeName": "Mudumalai National Park",
        "scientificName": "Helicteres isora L."
    },
    {
        "placeName": "Mudumalai National Park",
        "scientificName": "Hemidesmus indicus (L.) R.Br. ex Schult."
    },
    {
        "placeName": "Mudumalai National Park",
        "scientificName": "Heracleum rigens Wall. ex DC."
    },
    {
        "placeName": "Mudumalai National Park",
        "scientificName": "Hibiscus rosa-sinensis L."
    },
    {
        "placeName": "Mudumalai National Park",
        "scientificName": "Hibiscus tiliaceus L."
    },
    {
        "placeName": "Mudumalai National Park",
        "scientificName": "Hiptage benghalensis (L.) Kurz"
    },
    {
        "placeName": "Mudumalai National Park",
        "scientificName": "Holarrhena pubescens Wall. ex G.Don"
    },
    {
        "placeName": "Mudumalai National Park",
        "scientificName": "Holigarna beddomei Hook.f."
    },
    {
        "placeName": "Mudumalai National Park",
        "scientificName": "Hugonia mystax L."
    },
    {
        "placeName": "Mudumalai National Park",
        "scientificName": "Hybanthus enneaspermus (L.) Muell.Arg."
    },
    {
        "placeName": "Mudumalai National Park",
        "scientificName": "Hydrocotyle javanica Thunb."
    },
    {
        "placeName": "Mudumalai National Park",
        "scientificName": "Hypericum hookerianum Wight & Arn."
    },
    {
        "placeName": "Mudumalai National Park",
        "scientificName": "Hypericum mysorense F.Heyne"
    },
    {
        "placeName": "Mudumalai National Park",
        "scientificName": "Hypochaeris glabra L."
    },
    {
        "placeName": "Mudumalai National Park",
        "scientificName": "Ichnocarpus frutescens (L.) W.T.Aiton"
    },
    {
        "placeName": "Mudumalai National Park",
        "scientificName": "Indigofera aspalathoides DC."
    },
    {
        "placeName": "Mudumalai National Park",
        "scientificName": "Indigofera tinctoria L."
    },
    {
        "placeName": "Mudumalai National Park",
        "scientificName": "Ipomoea biflora (L.) Pers."
    },
    {
        "placeName": "Mudumalai National Park",
        "scientificName": "Ipomoea hederifolia L."
    },
    {
        "placeName": "Mudumalai National Park",
        "scientificName": "Ipomoea nil (L.) Roth"
    },
    {
        "placeName": "Mudumalai National Park",
        "scientificName": "Ipomoea obscura (L.) Ker Gawl."
    },
    {
        "placeName": "Mudumalai National Park",
        "scientificName": "Ixora notoniana Wall. ex G.Don"
    },
    {
        "placeName": "Mudumalai National Park",
        "scientificName": "Jasminum bignoniaceum Wall. & G.Don"
    },
    {
        "placeName": "Mudumalai National Park",
        "scientificName": "Jasminum trichotomum B.Heyne ex Roth"
    },
    {
        "placeName": "Mudumalai National Park",
        "scientificName": "Jatropha curcas L."
    },
    {
        "placeName": "Mudumalai National Park",
        "scientificName": "Justicia adhatoda L."
    },
    {
        "placeName": "Mudumalai National Park",
        "scientificName": "Justicia gendarussa Burm.f."
    },
    {
        "placeName": "Mudumalai National Park",
        "scientificName": "Justicia tranquebariensis L.f."
    },
    {
        "placeName": "Mudumalai National Park",
        "scientificName": "Kalanchoe grandiflora Wight & Arn."
    },
    {
        "placeName": "Mudumalai National Park",
        "scientificName": "Lagascea mollis Cav."
    },
    {
        "placeName": "Mudumalai National Park",
        "scientificName": "Lagerstroemia lanceolata Wall."
    },
    {
        "placeName": "Mudumalai National Park",
        "scientificName": "Lagerstroemia speciosa (L.) Pers."
    },
    {
        "placeName": "Mudumalai National Park",
        "scientificName": "Lannea coromandelica (Houtt.) Merr."
    },
    {
        "placeName": "Mudumalai National Park",
        "scientificName": "Lantana camara L."
    },
    {
        "placeName": "Mudumalai National Park",
        "scientificName": "Launaea acaulis (Roxb.) Babc. ex Kerr"
    },
    {
        "placeName": "Mudumalai National Park",
        "scientificName": "Lawsonia inermis L."
    },
    {
        "placeName": "Mudumalai National Park",
        "scientificName": "Ledebouria revoluta (L.f.) Jessop"
    },
    {
        "placeName": "Mudumalai National Park",
        "scientificName": "Leea asiatica (L.) Ridsdale"
    },
    {
        "placeName": "Mudumalai National Park",
        "scientificName": "Leptadenia reticulata (Retz.) Wight & Arn."
    },
    {
        "placeName": "Mudumalai National Park",
        "scientificName": "Leucas apera (Willd.) Link"
    },
    {
        "placeName": "Mudumalai National Park",
        "scientificName": "Leucas marrubioides Desf."
    },
    {
        "placeName": "Mudumalai National Park",
        "scientificName": "Limonia acidissima Groff"
    },
    {
        "placeName": "Mudumalai National Park",
        "scientificName": "Macaranga peltata (Roxb.) Mull.Arg."
    },
    {
        "placeName": "Mudumalai National Park",
        "scientificName": "Madhuca indica J.F. Gmel."
    },
    {
        "placeName": "Mudumalai National Park",
        "scientificName": "Maesa indica (Roxb.) A. DC."
    },
    {
        "placeName": "Mudumalai National Park",
        "scientificName": "Mallotus philippensis (Lam.) Muell.Arg."
    },
    {
        "placeName": "Mudumalai National Park",
        "scientificName": "Mallotus tetracoccus (Roxb.) Kurz"
    },
    {
        "placeName": "Mudumalai National Park",
        "scientificName": "Mangifera indica L."
    },
    {
        "placeName": "Mudumalai National Park",
        "scientificName": "Manilkara zapota (L.) P.Royen"
    },
    {
        "placeName": "Mudumalai National Park",
        "scientificName": "Martynia annua L."
    },
    {
        "placeName": "Mudumalai National Park",
        "scientificName": "Melia azedarach L."
    },
    {
        "placeName": "Mudumalai National Park",
        "scientificName": "Meliosma simplicifolia (Roxb.) Walp."
    },
    {
        "placeName": "Mudumalai National Park",
        "scientificName": "Memecylon umbellatum Burm.f."
    },
    {
        "placeName": "Mudumalai National Park",
        "scientificName": "Merremia tridentata (L.) Hallier f."
    },
    {
        "placeName": "Mudumalai National Park",
        "scientificName": "Mimosa pudica L."
    },
    {
        "placeName": "Mudumalai National Park",
        "scientificName": "Mimusops elengi L."
    },
    {
        "placeName": "Mudumalai National Park",
        "scientificName": "Mirabilis jalapa L."
    },
    {
        "placeName": "Mudumalai National Park",
        "scientificName": "Molineria trichocarpa (Wight) N.P.Balakr."
    },
    {
        "placeName": "Mudumalai National Park",
        "scientificName": "Momordica charantia L."
    },
    {
        "placeName": "Mudumalai National Park",
        "scientificName": "Morinda pubescens Sm."
    },
    {
        "placeName": "Mudumalai National Park",
        "scientificName": "Moringa concanensis Nimmo"
    },
    {
        "placeName": "Mudumalai National Park",
        "scientificName": "Mucuna pruriens (L.) DC."
    },
    {
        "placeName": "Mudumalai National Park",
        "scientificName": "Mucuna pruriens var. hirsuta (Wight & Arn.) Wilmot-Dear"
    },
    {
        "placeName": "Mudumalai National Park",
        "scientificName": "Mukia maderaspatana (L.) M. Roem."
    },
    {
        "placeName": "Mudumalai National Park",
        "scientificName": "Murraya paniculata (L.) Jack"
    },
    {
        "placeName": "Mudumalai National Park",
        "scientificName": "Musa paradisiaca L."
    },
    {
        "placeName": "Mudumalai National Park",
        "scientificName": "Myristica dactyloides Gaertn."
    },
    {
        "placeName": "Mudumalai National Park",
        "scientificName": "Naravelia zeylanica (L.) DC."
    },
    {
        "placeName": "Mudumalai National Park",
        "scientificName": "Nicandra physalodes (L.) Gaertn."
    },
    {
        "placeName": "Mudumalai National Park",
        "scientificName": "Ocimum basilicum L."
    },
    {
        "placeName": "Mudumalai National Park",
        "scientificName": "Ocimum tenuiflorum L."
    },
    {
        "placeName": "Mudumalai National Park",
        "scientificName": "Olea dioica Roxb."
    },
    {
        "placeName": "Mudumalai National Park",
        "scientificName": "Opuntia dillenii (Ker Gawl) Haw."
    },
    {
        "placeName": "Mudumalai National Park",
        "scientificName": "Opuntia monacantha (Willd.) Haw."
    },
    {
        "placeName": "Mudumalai National Park",
        "scientificName": "Orthosiphon thymiflorus (Roth) Sleesen"
    },
    {
        "placeName": "Mudumalai National Park",
        "scientificName": "Osbeckia capitata Benth. ex Naudin"
    },
    {
        "placeName": "Mudumalai National Park",
        "scientificName": "Oxalis corniculata L."
    },
    {
        "placeName": "Mudumalai National Park",
        "scientificName": "Pachygone ovata (Poir.) Diels"
    },
    {
        "placeName": "Mudumalai National Park",
        "scientificName": "Palaquium ellipticum (Dalzell) Baill."
    },
    {
        "placeName": "Mudumalai National Park",
        "scientificName": "Parthenium hysterophorus L."
    },
    {
        "placeName": "Mudumalai National Park",
        "scientificName": "Passiflora edulis Sims."
    },
    {
        "placeName": "Mudumalai National Park",
        "scientificName": "Pedalium murex L."
    },
    {
        "placeName": "Mudumalai National Park",
        "scientificName": "Peperomia tetraphylla (G.Forst.) Hook. & Arn."
    },
    {
        "placeName": "Mudumalai National Park",
        "scientificName": "Pergularia daemia (Forssk.) Chiov."
    },
    {
        "placeName": "Mudumalai National Park",
        "scientificName": "Persea macrantha (Nees) Kosterm."
    },
    {
        "placeName": "Mudumalai National Park",
        "scientificName": "Persicaria glabrum (Willd.) M. Gomez."
    },
    {
        "placeName": "Mudumalai National Park",
        "scientificName": "Phoenix loureiroi Kunth"
    },
    {
        "placeName": "Mudumalai National Park",
        "scientificName": "Phyllanthus amarus Schumach. & Thonn."
    },
    {
        "placeName": "Mudumalai National Park",
        "scientificName": "Phyllanthus emblica L."
    },
    {
        "placeName": "Mudumalai National Park",
        "scientificName": "Phyllanthus maderaspatensis L."
    },
    {
        "placeName": "Mudumalai National Park",
        "scientificName": "Physalis minima L."
    },
    {
        "placeName": "Mudumalai National Park",
        "scientificName": "Physalis peruviana L."
    },
    {
        "placeName": "Mudumalai National Park",
        "scientificName": "Pimpinella candolleana Wight & Arn."
    },
    {
        "placeName": "Mudumalai National Park",
        "scientificName": "Pimpinella leschenaultii DC."
    },
    {
        "placeName": "Mudumalai National Park",
        "scientificName": "Piper barberi Gamble"
    },
    {
        "placeName": "Mudumalai National Park",
        "scientificName": "Piper longum L."
    },
    {
        "placeName": "Mudumalai National Park",
        "scientificName": "Piper nigrum L."
    },
    {
        "placeName": "Mudumalai National Park",
        "scientificName": "Piper schmidtii Hook.f."
    },
    {
        "placeName": "Mudumalai National Park",
        "scientificName": "Piper wightii Miq."
    },
    {
        "placeName": "Mudumalai National Park",
        "scientificName": "Pithecellobium dulce (Roxb.) Benth."
    },
    {
        "placeName": "Mudumalai National Park",
        "scientificName": "Pleiospermium alatum (Wight & Arn.) Swingle"
    },
    {
        "placeName": "Mudumalai National Park",
        "scientificName": "Plumbago indica L."
    },
    {
        "placeName": "Mudumalai National Park",
        "scientificName": "Plumbago zeylanica L."
    },
    {
        "placeName": "Mudumalai National Park",
        "scientificName": "Pongamia pinnata (L.) Pierre"
    },
    {
        "placeName": "Mudumalai National Park",
        "scientificName": "Portulaca oleracea L."
    },
    {
        "placeName": "Mudumalai National Park",
        "scientificName": "Pothos scandens L."
    },
    {
        "placeName": "Mudumalai National Park",
        "scientificName": "Pouzolzia bennettiana Wight"
    },
    {
        "placeName": "Mudumalai National Park",
        "scientificName": "Priva cordifolia (L.f.) Druce"
    },
    {
        "placeName": "Mudumalai National Park",
        "scientificName": "Psidium guajava L."
    },
    {
        "placeName": "Mudumalai National Park",
        "scientificName": "Psydrax dicoccos Gaertn."
    },
    {
        "placeName": "Mudumalai National Park",
        "scientificName": "Pterocarpus marsupium Roxb."
    },
    {
        "placeName": "Mudumalai National Park",
        "scientificName": "Pterolobium hexapetalum (Roth.) Santapau & Wagh"
    },
    {
        "placeName": "Mudumalai National Park",
        "scientificName": "Punica granatum L."
    },
    {
        "placeName": "Mudumalai National Park",
        "scientificName": "Radermachera xylocarpa (Roxb.) Roxb. ex K.Schum."
    },
    {
        "placeName": "Mudumalai National Park",
        "scientificName": "Raphidophora pertusa (Roxb.) Schott"
    },
    {
        "placeName": "Mudumalai National Park",
        "scientificName": "Rauvolfia serpentina (L.) Benth. ex Kurz"
    },
    {
        "placeName": "Mudumalai National Park",
        "scientificName": "Rauvolfia tetraphylla L."
    },
    {
        "placeName": "Mudumalai National Park",
        "scientificName": "Rhus mysorensis G.Don"
    },
    {
        "placeName": "Mudumalai National Park",
        "scientificName": "Ricinus communis L."
    },
    {
        "placeName": "Mudumalai National Park",
        "scientificName": "Rivea hypocrateriformis Choisy"
    },
    {
        "placeName": "Mudumalai National Park",
        "scientificName": "Rubia peregrina L."
    },
    {
        "placeName": "Mudumalai National Park",
        "scientificName": "Ruta chalepensis L."
    },
    {
        "placeName": "Mudumalai National Park",
        "scientificName": "Salacia oblonga Wall."
    },
    {
        "placeName": "Mudumalai National Park",
        "scientificName": "Salix tetrasperma Roxb."
    },
    {
        "placeName": "Mudumalai National Park",
        "scientificName": "Sansevieria roxburghiana Schult. & Schult. f."
    },
    {
        "placeName": "Mudumalai National Park",
        "scientificName": "Santalum album L."
    },
    {
        "placeName": "Mudumalai National Park",
        "scientificName": "Sapindus emarginatus Vahl"
    },
    {
        "placeName": "Mudumalai National Park",
        "scientificName": "Schefflera stellata (Gaertn.) Baill."
    },
    {
        "placeName": "Mudumalai National Park",
        "scientificName": "Schleichera oleosa (Lour.) Merr."
    },
    {
        "placeName": "Mudumalai National Park",
        "scientificName": "Schrebera swietenioides Roxb."
    },
    {
        "placeName": "Mudumalai National Park",
        "scientificName": "Scoparia dulcis L."
    },
    {
        "placeName": "Mudumalai National Park",
        "scientificName": "Semecarpus anacardium L.f."
    },
    {
        "placeName": "Mudumalai National Park",
        "scientificName": "Senna alata L. (Roxb.)"
    },
    {
        "placeName": "Mudumalai National Park",
        "scientificName": "Senna auriculata L. (Roxb.)"
    },
    {
        "placeName": "Mudumalai National Park",
        "scientificName": "Senna italica Mill."
    },
    {
        "placeName": "Mudumalai National Park",
        "scientificName": "Senna occidentalis (L.) Link"
    },
    {
        "placeName": "Mudumalai National Park",
        "scientificName": "Senna sophera (L.) Roxb."
    },
    {
        "placeName": "Mudumalai National Park",
        "scientificName": "Senna tora (L.) Roxb."
    },
    {
        "placeName": "Mudumalai National Park",
        "scientificName": "Sesamum indicum L."
    },
    {
        "placeName": "Mudumalai National Park",
        "scientificName": "Sesbania grandiflora (L.) Pers."
    },
    {
        "placeName": "Mudumalai National Park",
        "scientificName": "Shorea roxburghii G.Don"
    },
    {
        "placeName": "Mudumalai National Park",
        "scientificName": "Sida acuta Burm.f."
    },
    {
        "placeName": "Mudumalai National Park",
        "scientificName": "Sida cordifolia L."
    },
    {
        "placeName": "Mudumalai National Park",
        "scientificName": "Sida rhombifolia L."
    },
    {
        "placeName": "Mudumalai National Park",
        "scientificName": "Solanum americanum L."
    },
    {
        "placeName": "Mudumalai National Park",
        "scientificName": "Solanum erianthum D. Don"
    },
    {
        "placeName": "Mudumalai National Park",
        "scientificName": "Solanum surattense Burm. f."
    },
    {
        "placeName": "Mudumalai National Park",
        "scientificName": "Solanum torvum Sw."
    },
    {
        "placeName": "Mudumalai National Park",
        "scientificName": "Solanum trilobatum L."
    },
    {
        "placeName": "Mudumalai National Park",
        "scientificName": "Solanum virginianum L."
    },
    {
        "placeName": "Mudumalai National Park",
        "scientificName": "Soymida febrifusa (Roxb.) A. Juss."
    },
    {
        "placeName": "Mudumalai National Park",
        "scientificName": "Sphaeranthus indicus L."
    },
    {
        "placeName": "Mudumalai National Park",
        "scientificName": "Sphagneticola calendulacea (L.) Pruski"
    },
    {
        "placeName": "Mudumalai National Park",
        "scientificName": "Spondias pinnata (L.f.) Kurz"
    },
    {
        "placeName": "Mudumalai National Park",
        "scientificName": "Stachytarpheta jamaicensis (L.) Vahl"
    },
    {
        "placeName": "Mudumalai National Park",
        "scientificName": "Stephania japonica (Thunb.) Miers"
    },
    {
        "placeName": "Mudumalai National Park",
        "scientificName": "Stereospermum tetragonum DC"
    },
    {
        "placeName": "Mudumalai National Park",
        "scientificName": "Strobilanthes alatiramosa H.S. Lo & D. Fang"
    },
    {
        "placeName": "Mudumalai National Park",
        "scientificName": "Strobilanthes cuspidata T.Anderson"
    },
    {
        "placeName": "Mudumalai National Park",
        "scientificName": "Strychnos nux-vomica L."
    },
    {
        "placeName": "Mudumalai National Park",
        "scientificName": "Strychnos potatorum L.f."
    },
    {
        "placeName": "Mudumalai National Park",
        "scientificName": "Symplocos racemosa Roxb."
    },
    {
        "placeName": "Mudumalai National Park",
        "scientificName": "Syzygium cumini (L.) Skeels"
    },
    {
        "placeName": "Mudumalai National Park",
        "scientificName": "Syzygium grande (Wight) Walp."
    },
    {
        "placeName": "Mudumalai National Park",
        "scientificName": "Syzygium laetum (Buch.-Ham.) Gandhi"
    },
    {
        "placeName": "Mudumalai National Park",
        "scientificName": "Syzygium travancoricum Gamble"
    },
    {
        "placeName": "Mudumalai National Park",
        "scientificName": "Tadehagi triquetrum (L.) DC."
    },
    {
        "placeName": "Mudumalai National Park",
        "scientificName": "Tamarindus indica L."
    },
    {
        "placeName": "Mudumalai National Park",
        "scientificName": "Tarenna asiatica (L.) Kuntze ex K. Schum."
    },
    {
        "placeName": "Mudumalai National Park",
        "scientificName": "Tectona grandis L.f."
    },
    {
        "placeName": "Mudumalai National Park",
        "scientificName": "Tephrosia purpurea (L.) Pers."
    },
    {
        "placeName": "Mudumalai National Park",
        "scientificName": "Terminalia arjuna (Roxb. ex DC.) Wight & Arn."
    },
    {
        "placeName": "Mudumalai National Park",
        "scientificName": "Terminalia bellirica (Gaerth.) Roxb."
    },
    {
        "placeName": "Mudumalai National Park",
        "scientificName": "Terminalia chebula Retz."
    },
    {
        "placeName": "Mudumalai National Park",
        "scientificName": "Terminalia crenulata Roth"
    },
    {
        "placeName": "Mudumalai National Park",
        "scientificName": "Terminalia paniculata Roth"
    },
    {
        "placeName": "Mudumalai National Park",
        "scientificName": "Tetrastigma canarense (Dalziel) Gamble"
    },
    {
        "placeName": "Mudumalai National Park",
        "scientificName": "Thunbergia laurifolia Lindl."
    },
    {
        "placeName": "Mudumalai National Park",
        "scientificName": "Thunbergia mysorensis (Wight) T.Anderson"
    },
    {
        "placeName": "Mudumalai National Park",
        "scientificName": "Tinospora cordifolia (Willd.) Hook.f."
    },
    {
        "placeName": "Mudumalai National Park",
        "scientificName": "Toddalia asiatica (L.) Lam."
    },
    {
        "placeName": "Mudumalai National Park",
        "scientificName": "Toona ciliata M. Roem."
    },
    {
        "placeName": "Mudumalai National Park",
        "scientificName": "Trema orientalis (L.) Blume"
    },
    {
        "placeName": "Mudumalai National Park",
        "scientificName": "Tribulus terrestris L."
    },
    {
        "placeName": "Mudumalai National Park",
        "scientificName": "Trichodesma indicum (L.) Lehm."
    },
    {
        "placeName": "Mudumalai National Park",
        "scientificName": "Trichosanthes cucumerina L."
    },
    {
        "placeName": "Mudumalai National Park",
        "scientificName": "Trichosanthes nervifolia L."
    },
    {
        "placeName": "Mudumalai National Park",
        "scientificName": "Tridax procumbens L."
    },
    {
        "placeName": "Mudumalai National Park",
        "scientificName": "Triumfetta annua L."
    },
    {
        "placeName": "Mudumalai National Park",
        "scientificName": "Triumfetta rhomboidea Jacq."
    },
    {
        "placeName": "Mudumalai National Park",
        "scientificName": "Urena lobata L."
    },
    {
        "placeName": "Mudumalai National Park",
        "scientificName": "Viburnum punctatum Buch.\u2013Ham. ex D.Don"
    },
    {
        "placeName": "Mudumalai National Park",
        "scientificName": "Vigna vexillata (L.) A.Rich."
    },
    {
        "placeName": "Mudumalai National Park",
        "scientificName": "Vitex altissima L.f."
    },
    {
        "placeName": "Mudumalai National Park",
        "scientificName": "Vitex negundo L."
    },
    {
        "placeName": "Mudumalai National Park",
        "scientificName": "Wendlandia thyrsoidea (Roth) Steud."
    },
    {
        "placeName": "Mudumalai National Park",
        "scientificName": "Wrightia tinctoria R.Br."
    },
    {
        "placeName": "Mudumalai National Park",
        "scientificName": "Youngia japonica (L.) DC."
    },
    {
        "placeName": "Mudumalai National Park",
        "scientificName": "Zingiber officinale Roscoe"
    },
    {
        "placeName": "Mudumalai National Park",
        "scientificName": "Ziziphus mauritiana"
    },
    {
        "placeName": "Mudumalai National Park",
        "scientificName": "Ziziphus xylopyras (Retz.) Willd."
    },
    {
        "placeName": "Mudumalai National Park",
        "scientificName": "Zornia gibbosa Span."
    },
    {
        "placeName": "placeName",
        "scientificName": "scientificName"
    },
    {
        "placeName": "Mukurthi National Park",
        "scientificName": "Ranunculus reniformis"
    },
    {
        "placeName": "Mukurthi National Park",
        "scientificName": "Cruciferaceae"
    },
    {
        "placeName": "Mukurthi National Park",
        "scientificName": "Cardamine hirsuta"
    },
    {
        "placeName": "Mukurthi National Park",
        "scientificName": "Viola serpens pilosa"
    },
    {
        "placeName": "Mukurthi National Park",
        "scientificName": "Polygala sibirica"
    },
    {
        "placeName": "Mukurthi National Park",
        "scientificName": "Hypericum mysurense"
    },
    {
        "placeName": "Mukurthi National Park",
        "scientificName": "Hypericum hookerianum"
    },
    {
        "placeName": "Mukurthi National Park",
        "scientificName": "Hypericum wightianum"
    },
    {
        "placeName": "Mukurthi National Park",
        "scientificName": "Theaceae"
    },
    {
        "placeName": "Mukurthi National Park",
        "scientificName": "Eurya nitida"
    },
    {
        "placeName": "Mukurthi National Park",
        "scientificName": "Linum mysorense"
    },
    {
        "placeName": "Mukurthi National Park",
        "scientificName": "Geranium nepalense"
    },
    {
        "placeName": "Mukurthi National Park",
        "scientificName": "Oxalis corniculata"
    },
    {
        "placeName": "Mukurthi National Park",
        "scientificName": "Impatiens acaulis"
    },
    {
        "placeName": "Mukurthi National Park",
        "scientificName": "Impatiens clavicornu"
    },
    {
        "placeName": "Mukurthi National Park",
        "scientificName": "Impatiens diversifolia"
    },
    {
        "placeName": "Mukurthi National Park",
        "scientificName": "Impatiens laticornis"
    },
    {
        "placeName": "Mukurthi National Park",
        "scientificName": "Impatiens leschenaultii"
    },
    {
        "placeName": "Mukurthi National Park",
        "scientificName": "Impatiens munronii"
    },
    {
        "placeName": "Mukurthi National Park",
        "scientificName": "Impatiens inconspicua"
    },
    {
        "placeName": "Mukurthi National Park",
        "scientificName": "Impatiens rufescens"
    },
    {
        "placeName": "Mukurthi National Park",
        "scientificName": "Crotalaria calycina"
    },
    {
        "placeName": "Mukurthi National Park",
        "scientificName": "Crotalaria formosa"
    },
    {
        "placeName": "Mukurthi National Park",
        "scientificName": "Crotalaria scabrella"
    },
    {
        "placeName": "Mukurthi National Park",
        "scientificName": "Crotalaria sp."
    },
    {
        "placeName": "Mukurthi National Park",
        "scientificName": "Cytisus scoparius"
    },
    {
        "placeName": "Mukurthi National Park",
        "scientificName": "Smithia blanda"
    },
    {
        "placeName": "Mukurthi National Park",
        "scientificName": "Ulex europaeus"
    },
    {
        "placeName": "Mukurthi National Park",
        "scientificName": "Acacia  melanoxylon"
    },
    {
        "placeName": "Mukurthi National Park",
        "scientificName": "Acacia mollisima"
    },
    {
        "placeName": "Mukurthi National Park",
        "scientificName": "Alchemilla indica"
    },
    {
        "placeName": "Mukurthi National Park",
        "scientificName": "Fragaria nilgerrensis"
    },
    {
        "placeName": "Mukurthi National Park",
        "scientificName": "Potentilla leschenaultiana"
    },
    {
        "placeName": "Mukurthi National Park",
        "scientificName": "Rubus ellipticus"
    },
    {
        "placeName": "Mukurthi National Park",
        "scientificName": "Rubus fairholmianus"
    },
    {
        "placeName": "Mukurthi National Park",
        "scientificName": "Rubus niveus"
    },
    {
        "placeName": "Mukurthi National Park",
        "scientificName": "Kalanchoe grandiflora"
    },
    {
        "placeName": "Mukurthi National Park",
        "scientificName": "Parnassia mysorensis"
    },
    {
        "placeName": "Mukurthi National Park",
        "scientificName": "Parnassia wightiana"
    },
    {
        "placeName": "Mukurthi National Park",
        "scientificName": "Drosera burmanni"
    },
    {
        "placeName": "Mukurthi National Park",
        "scientificName": "Drosera peltata"
    },
    {
        "placeName": "Mukurthi National Park",
        "scientificName": "Serpicula brevipes"
    },
    {
        "placeName": "Mukurthi National Park",
        "scientificName": "Rhodomyrtus tomentosa"
    },
    {
        "placeName": "Mukurthi National Park",
        "scientificName": "Osbeckia brachystemon"
    },
    {
        "placeName": "Mukurthi National Park",
        "scientificName": "Osbeckia leschenaultiana"
    },
    {
        "placeName": "Mukurthi National Park",
        "scientificName": "Osbeckia sublaevis"
    },
    {
        "placeName": "Mukurthi National Park",
        "scientificName": "Sonerila gamblei"
    },
    {
        "placeName": "Mukurthi National Park",
        "scientificName": "Sonerila spec."
    },
    {
        "placeName": "Mukurthi National Park",
        "scientificName": "Sonerila rotundifolia"
    },
    {
        "placeName": "Mukurthi National Park",
        "scientificName": "Bupleurum distichophyllum"
    },
    {
        "placeName": "Mukurthi National Park",
        "scientificName": "Heracleum ceylanicum"
    },
    {
        "placeName": "Mukurthi National Park",
        "scientificName": "Pimpinella candolleana"
    },
    {
        "placeName": "Mukurthi National Park",
        "scientificName": "Pimpinella leschenaultii"
    },
    {
        "placeName": "Mukurthi National Park",
        "scientificName": "Neanotis wightiana"
    },
    {
        "placeName": "Mukurthi National Park",
        "scientificName": "Hedyotis articularis"
    },
    {
        "placeName": "Mukurthi National Park",
        "scientificName": "Hedyotis hirsutissima"
    },
    {
        "placeName": "Mukurthi National Park",
        "scientificName": "Hedyotis leschenaultiana"
    },
    {
        "placeName": "Mukurthi National Park",
        "scientificName": "Hedyotis verticillaris"
    },
    {
        "placeName": "Mukurthi National Park",
        "scientificName": "Valeriana leschenaultii"
    },
    {
        "placeName": "Mukurthi National Park",
        "scientificName": "Dipsacus leschenaultii"
    },
    {
        "placeName": "Mukurthi National Park",
        "scientificName": "Anaphalis macrescens"
    },
    {
        "placeName": "Mukurthi National Park",
        "scientificName": "Anaphalis neelgerryana"
    },
    {
        "placeName": "Mukurthi National Park",
        "scientificName": "Anaphalis notoniana"
    },
    {
        "placeName": "Mukurthi National Park",
        "scientificName": "Anaphalis sp."
    },
    {
        "placeName": "Mukurthi National Park",
        "scientificName": "Anaphalis wightiana"
    },
    {
        "placeName": "Mukurthi National Park",
        "scientificName": "Blumea hieracifolia"
    },
    {
        "placeName": "Mukurthi National Park",
        "scientificName": "Centratherum reticulatum"
    },
    {
        "placeName": "Mukurthi National Park",
        "scientificName": "Cirsium wallichii"
    },
    {
        "placeName": "Mukurthi National Park",
        "scientificName": "Conyza stricta"
    },
    {
        "placeName": "Mukurthi National Park",
        "scientificName": "Launaea japonica"
    },
    {
        "placeName": "Mukurthi National Park",
        "scientificName": "Dichrocephala\nchrysanthemifolia"
    },
    {
        "placeName": "Mukurthi National Park",
        "scientificName": "Emilia scabra"
    },
    {
        "placeName": "Mukurthi National Park",
        "scientificName": "Erigeron mucronatus"
    },
    {
        "placeName": "Mukurthi National Park",
        "scientificName": "Eupatorium glandulosum"
    },
    {
        "placeName": "Mukurthi National Park",
        "scientificName": "Gnaphalium luteo-album"
    },
    {
        "placeName": "Mukurthi National Park",
        "scientificName": "Helichrysum bracteatum"
    },
    {
        "placeName": "Mukurthi National Park",
        "scientificName": "Helichrysum buddleioides"
    },
    {
        "placeName": "Mukurthi National Park",
        "scientificName": "Helichrysum wightii"
    },
    {
        "placeName": "Mukurthi National Park",
        "scientificName": "Hypochaeris glabra"
    },
    {
        "placeName": "Mukurthi National Park",
        "scientificName": "Moonia heterophylla"
    },
    {
        "placeName": "Mukurthi National Park",
        "scientificName": "Myriactis wightii"
    },
    {
        "placeName": "Mukurthi National Park",
        "scientificName": "Picris heiracioides"
    },
    {
        "placeName": "Mukurthi National Park",
        "scientificName": "Senecio intermedius"
    },
    {
        "placeName": "Mukurthi National Park",
        "scientificName": "Senecio lavandulifolius"
    },
    {
        "placeName": "Mukurthi National Park",
        "scientificName": "Senecio lawsonii"
    },
    {
        "placeName": "Mukurthi National Park",
        "scientificName": "Senecio lessingianus"
    },
    {
        "placeName": "Mukurthi National Park",
        "scientificName": "Senecio polycephalus"
    },
    {
        "placeName": "Mukurthi National Park",
        "scientificName": "Senecio wightii"
    },
    {
        "placeName": "Mukurthi National Park",
        "scientificName": "Vernonia sp."
    },
    {
        "placeName": "Mukurthi National Park",
        "scientificName": "Vernonia sp."
    },
    {
        "placeName": "Mukurthi National Park",
        "scientificName": "Campanulaceae"
    },
    {
        "placeName": "Mukurthi National Park",
        "scientificName": "Campanula alphonsii"
    },
    {
        "placeName": "Mukurthi National Park",
        "scientificName": "Campanula fulgens"
    },
    {
        "placeName": "Mukurthi National Park",
        "scientificName": "Lobelia leschenaultiana"
    },
    {
        "placeName": "Mukurthi National Park",
        "scientificName": "Wahlenbergia marginata"
    },
    {
        "placeName": "Mukurthi National Park",
        "scientificName": "Gaultheria fragrantissima"
    },
    {
        "placeName": "Mukurthi National Park",
        "scientificName": "Rhododendron nilagiricum"
    },
    {
        "placeName": "Mukurthi National Park",
        "scientificName": "Lysimachia procumbens"
    },
    {
        "placeName": "Mukurthi National Park",
        "scientificName": "Jasminum bignoniaceum"
    },
    {
        "placeName": "Mukurthi National Park",
        "scientificName": "Gentiana pedicellata"
    },
    {
        "placeName": "Mukurthi National Park",
        "scientificName": "Swertia corymbosa"
    },
    {
        "placeName": "Mukurthi National Park",
        "scientificName": "Cynoglossum furcatum"
    },
    {
        "placeName": "Mukurthi National Park",
        "scientificName": "Scrophulariaceae"
    },
    {
        "placeName": "Mukurthi National Park",
        "scientificName": "Calceolaria grandiflora"
    },
    {
        "placeName": "Mukurthi National Park",
        "scientificName": "Pedicularis perrottetii"
    },
    {
        "placeName": "Mukurthi National Park",
        "scientificName": "Pedicularis zeylanica"
    },
    {
        "placeName": "Mukurthi National Park",
        "scientificName": "Sopubia trifida"
    },
    {
        "placeName": "Mukurthi National Park",
        "scientificName": "Striga lutea"
    },
    {
        "placeName": "Mukurthi National Park",
        "scientificName": "Lentribulariaceae"
    },
    {
        "placeName": "Mukurthi National Park",
        "scientificName": "Utricularia graminifolia"
    },
    {
        "placeName": "Mukurthi National Park",
        "scientificName": "Lentibularia squamosa"
    },
    {
        "placeName": "Mukurthi National Park",
        "scientificName": "Andrographis lobeliodes"
    },
    {
        "placeName": "Mukurthi National Park",
        "scientificName": "Justicia latispica"
    },
    {
        "placeName": "Mukurthi National Park",
        "scientificName": "Justicia simplex"
    },
    {
        "placeName": "Mukurthi National Park",
        "scientificName": "Strobilanthes kuntianus"
    },
    {
        "placeName": "Mukurthi National Park",
        "scientificName": "Strobilanthes wightianus"
    },
    {
        "placeName": "Mukurthi National Park",
        "scientificName": "Prunella vulgaris"
    },
    {
        "placeName": "Mukurthi National Park",
        "scientificName": "Chenopodium umbrosum"
    },
    {
        "placeName": "Mukurthi National Park",
        "scientificName": "Leucas lancifolia"
    },
    {
        "placeName": "Mukurthi National Park",
        "scientificName": "Leucas rosmarinifolia"
    },
    {
        "placeName": "Mukurthi National Park",
        "scientificName": "Leucas suffruticosa"
    },
    {
        "placeName": "Mukurthi National Park",
        "scientificName": "Micromeria biflora"
    },
    {
        "placeName": "Mukurthi National Park",
        "scientificName": "Plectranthus barbatus"
    },
    {
        "placeName": "Mukurthi National Park",
        "scientificName": "Isodon nilgherricus"
    },
    {
        "placeName": "Mukurthi National Park",
        "scientificName": "Pogostemon atropurpureus"
    },
    {
        "placeName": "Mukurthi National Park",
        "scientificName": "Pogostemon mollis"
    },
    {
        "placeName": "Mukurthi National Park",
        "scientificName": "Pogostemon speciosus"
    },
    {
        "placeName": "Mukurthi National Park",
        "scientificName": "Teucrium wightii"
    },
    {
        "placeName": "Mukurthi National Park",
        "scientificName": "Plantago erosa"
    },
    {
        "placeName": "Mukurthi National Park",
        "scientificName": "Polygonum sphaerocephalum"
    },
    {
        "placeName": "Mukurthi National Park",
        "scientificName": "Thesium wightianum"
    },
    {
        "placeName": "Mukurthi National Park",
        "scientificName": "Phyllanthus gardnerianus"
    },
    {
        "placeName": "Mukurthi National Park",
        "scientificName": "Aerides crispa"
    },
    {
        "placeName": "Mukurthi National Park",
        "scientificName": "Coelogyne glandulosa"
    },
    {
        "placeName": "Mukurthi National Park",
        "scientificName": "Coelogyne nervosa"
    },
    {
        "placeName": "Mukurthi National Park",
        "scientificName": "Eria reticosa"
    },
    {
        "placeName": "Mukurthi National Park",
        "scientificName": "Eria tiagii"
    },
    {
        "placeName": "Mukurthi National Park",
        "scientificName": "Habenaria barnesii"
    },
    {
        "placeName": "Mukurthi National Park",
        "scientificName": "Habenaria cephalotes"
    },
    {
        "placeName": "Mukurthi National Park",
        "scientificName": "Habenaria digitata"
    },
    {
        "placeName": "Mukurthi National Park",
        "scientificName": "Habenaria heyneana"
    },
    {
        "placeName": "Mukurthi National Park",
        "scientificName": "Peristylus spiralis"
    },
    {
        "placeName": "Mukurthi National Park",
        "scientificName": "Satyrium nepalense"
    },
    {
        "placeName": "Mukurthi National Park",
        "scientificName": "Spiranthes sinensis"
    },
    {
        "placeName": "Mukurthi National Park",
        "scientificName": "Curculigo orchioides"
    },
    {
        "placeName": "Mukurthi National Park",
        "scientificName": "Asparagus fysonii"
    },
    {
        "placeName": "Mukurthi National Park",
        "scientificName": "Chlorophytum malabaricum"
    },
    {
        "placeName": "Mukurthi National Park",
        "scientificName": "Juncus inflexus"
    },
    {
        "placeName": "Mukurthi National Park",
        "scientificName": "Juncus leschenaultii"
    },
    {
        "placeName": "Mukurthi National Park",
        "scientificName": "Arisaema leschenaultii"
    },
    {
        "placeName": "Mukurthi National Park",
        "scientificName": "Eriocaulon nilagirense"
    },
    {
        "placeName": "Mukurthi National Park",
        "scientificName": "Eriocaulon collinum"
    },
    {
        "placeName": "Mukurthi National Park",
        "scientificName": "Eriocaulon gamblei"
    },
    {
        "placeName": "Mukurthi National Park",
        "scientificName": "Eriocaulon robustum"
    },
    {
        "placeName": "Mukurthi National Park",
        "scientificName": "Carex filicina"
    },
    {
        "placeName": "Mukurthi National Park",
        "scientificName": "Carex nubigena"
    },
    {
        "placeName": "Mukurthi National Park",
        "scientificName": "Scirpus subcapitatus"
    },
    {
        "placeName": "Mukurthi National Park",
        "scientificName": "Gramineae (Poaceae)"
    },
    {
        "placeName": "Mukurthi National Park",
        "scientificName": "Agrostis pilosula"
    },
    {
        "placeName": "Mukurthi National Park",
        "scientificName": "Agrostis setacea"
    },
    {
        "placeName": "Mukurthi National Park",
        "scientificName": "Agrostis stolonifera"
    },
    {
        "placeName": "Mukurthi National Park",
        "scientificName": "Andropogon gayanum\ndicanthium polypty ----"
    },
    {
        "placeName": "Mukurthi National Park",
        "scientificName": "Andropogon lividus"
    },
    {
        "placeName": "Mukurthi National Park",
        "scientificName": "Andropogon polyptychus"
    },
    {
        "placeName": "Mukurthi National Park",
        "scientificName": "Anthoxanthum odoratum"
    },
    {
        "placeName": "Mukurthi National Park",
        "scientificName": "Arundinella purpurea"
    },
    {
        "placeName": "Mukurthi National Park",
        "scientificName": "Brachypodium sylvaticum"
    },
    {
        "placeName": "Mukurthi National Park",
        "scientificName": "Chrysopogon zeylanicus"
    },
    {
        "placeName": "Mukurthi National Park",
        "scientificName": "Chrysopogon asper"
    },
    {
        "placeName": "Mukurthi National Park",
        "scientificName": "Dichanthium  oliganthum"
    },
    {
        "placeName": "Mukurthi National Park",
        "scientificName": "Eragrostis sp."
    },
    {
        "placeName": "Mukurthi National Park",
        "scientificName": "Eulalia phaeotrix"
    },
    {
        "placeName": "Mukurthi National Park",
        "scientificName": "Garnotia puchiparensis"
    },
    {
        "placeName": "Mukurthi National Park",
        "scientificName": "Helictotrichon virescens"
    },
    {
        "placeName": "Mukurthi National Park",
        "scientificName": "Isachne kunthiana"
    },
    {
        "placeName": "Mukurthi National Park",
        "scientificName": "Ischaemum commutatum"
    },
    {
        "placeName": "Mukurthi National Park",
        "scientificName": "Ischaemum indicum"
    },
    {
        "placeName": "Mukurthi National Park",
        "scientificName": "Ischaemum nilagiricum"
    },
    {
        "placeName": "Mukurthi National Park",
        "scientificName": "Jansenella griffithiana"
    },
    {
        "placeName": "Mukurthi National Park",
        "scientificName": "Poa gamblei"
    },
    {
        "placeName": "Mukurthi National Park",
        "scientificName": "Themeda tremula"
    },
    {
        "placeName": "Mukurthi National Park",
        "scientificName": "Tripogon bromoides"
    },
    {
        "placeName": "Mukurthi National Park",
        "scientificName": "Tripogon jacquemontii"
    },
    {
        "placeName": "Mukurthi National Park",
        "scientificName": "Species"
    },
    {
        "placeName": "Mukurthi National Park",
        "scientificName": "Lycopodiaceae"
    },
    {
        "placeName": "Mukurthi National Park",
        "scientificName": "Lycopodium wightianum"
    },
    {
        "placeName": "Mukurthi National Park",
        "scientificName": "Lycopodiella cernua"
    },
    {
        "placeName": "Mukurthi National Park",
        "scientificName": "Huperzia sp."
    },
    {
        "placeName": "Mukurthi National Park",
        "scientificName": "Huperzia sp."
    },
    {
        "placeName": "Mukurthi National Park",
        "scientificName": "Dicranopteris liniaris"
    },
    {
        "placeName": "Mukurthi National Park",
        "scientificName": "Osmunda hugeliana"
    },
    {
        "placeName": "Mukurthi National Park",
        "scientificName": "Cheilanthes bellangeri"
    },
    {
        "placeName": "Mukurthi National Park",
        "scientificName": "Lindsea odorata"
    },
    {
        "placeName": "Mukurthi National Park",
        "scientificName": "Dryopteridaceae"
    },
    {
        "placeName": "Mukurthi National Park",
        "scientificName": "Polystichum squarrosum"
    },
    {
        "placeName": "Mukurthi National Park",
        "scientificName": "Dryopteris sp."
    },
    {
        "placeName": "Mukurthi National Park",
        "scientificName": "Stegnogramma pozoi"
    },
    {
        "placeName": "Mukurthi National Park",
        "scientificName": "Crypsinus montanus"
    },
    {
        "placeName": "Mukurthi National Park",
        "scientificName": "Pteridium aquilinum"
    },
    {
        "placeName": "Mukurthi National Park",
        "scientificName": "Cyathea crinita"
    },
    {
        "placeName": "Mukurthi National Park",
        "scientificName": "Athyrium sp."
    },
    {
        "placeName": "placeName",
        "scientificName": "scientificName"
    },
    {
        "placeName": "Wayanad ",
        "scientificName": "Adenanthera pavonina L."
    },
    {
        "placeName": "Wayanad ",
        "scientificName": "Albizia lebbeck (L.) Benth."
    },
    {
        "placeName": "Wayanad ",
        "scientificName": "Albizia chinensis (Osb.) Merr."
    },
    {
        "placeName": "Wayanad ",
        "scientificName": "Anogeissus latifolia (Roxb. ex DC.)Wall. ex Guill. and Perr."
    },
    {
        "placeName": "Wayanad ",
        "scientificName": "Artocarpus hirsutus Lam."
    },
    {
        "placeName": "Wayanad ",
        "scientificName": "Bauhinia malabarica Roxb."
    },
    {
        "placeName": "Wayanad ",
        "scientificName": "Bombax ceiba L."
    },
    {
        "placeName": "Wayanad ",
        "scientificName": "Buchanania lanzan Spreng."
    },
    {
        "placeName": "Wayanad ",
        "scientificName": "Butea monosperma (Lam.) Taub."
    },
    {
        "placeName": "Wayanad ",
        "scientificName": "Callicarpa tomentosa (L.) L."
    },
    {
        "placeName": "Wayanad ",
        "scientificName": "Calophyllum calaba L."
    },
    {
        "placeName": "Wayanad ",
        "scientificName": "Careya arborea Roxb."
    },
    {
        "placeName": "Wayanad ",
        "scientificName": "Caryota urens L."
    },
    {
        "placeName": "Wayanad ",
        "scientificName": "Casearia wynadensis Bedd."
    },
    {
        "placeName": "Wayanad ",
        "scientificName": "Cassia fistula L."
    },
    {
        "placeName": "Wayanad ",
        "scientificName": "Cassine albens (Retz.) Kosterm."
    },
    {
        "placeName": "Wayanad ",
        "scientificName": "Cinnamomum malabatrum (Burm.f.) Blume"
    },
    {
        "placeName": "Wayanad ",
        "scientificName": "Cordia obliqua Willd."
    },
    {
        "placeName": "Wayanad ",
        "scientificName": "Crataeva magna (Lour.) DC."
    },
    {
        "placeName": "Wayanad ",
        "scientificName": "Dalbergia lanceolaria L. f."
    },
    {
        "placeName": "Wayanad ",
        "scientificName": "Dalbergia latifolia Roxb."
    },
    {
        "placeName": "Wayanad ",
        "scientificName": "Diospyros melanoxylon Roxb."
    },
    {
        "placeName": "Wayanad ",
        "scientificName": "Diospyros montana Roxb."
    },
    {
        "placeName": "Wayanad ",
        "scientificName": "Dolichandrone arcuata (Wight) Clarke"
    },
    {
        "placeName": "Wayanad ",
        "scientificName": "Erythrina stricta Roxb."
    },
    {
        "placeName": "Wayanad ",
        "scientificName": "Ficus benghalensis L."
    },
    {
        "placeName": "Wayanad ",
        "scientificName": "Ficus hispida L. f."
    },
    {
        "placeName": "Wayanad ",
        "scientificName": "Ficus racemosa L."
    },
    {
        "placeName": "Wayanad ",
        "scientificName": "Ficus tsjahela Burm. F."
    },
    {
        "placeName": "Wayanad ",
        "scientificName": "Flacourtia montana Graham"
    },
    {
        "placeName": "Wayanad ",
        "scientificName": "Garcinia gummi-gutta (L.) Robs."
    },
    {
        "placeName": "Wayanad ",
        "scientificName": "Garuga pinnata Roxb."
    },
    {
        "placeName": "Wayanad ",
        "scientificName": "Gmelina arborea Roxb."
    },
    {
        "placeName": "Wayanad ",
        "scientificName": "Grewia tiliifolia Vahl"
    },
    {
        "placeName": "Wayanad ",
        "scientificName": "Haldina cordifolia (Roxb.) Ridsd."
    },
    {
        "placeName": "Wayanad ",
        "scientificName": "Hopea parviflora Bedd."
    },
    {
        "placeName": "Wayanad ",
        "scientificName": "Hydnocarpus pentandra (Buch.-Ham.) Oken."
    },
    {
        "placeName": "Wayanad ",
        "scientificName": "Lagerstroemia microcarpa Wight"
    },
    {
        "placeName": "Wayanad ",
        "scientificName": "Lagerstroemia parviflora Roxb."
    },
    {
        "placeName": "Wayanad ",
        "scientificName": "Lannea coromandelica (Houtt.) Merr."
    },
    {
        "placeName": "Wayanad ",
        "scientificName": "Litsea coriacea (Heyne ex Meisner) Hook. f."
    },
    {
        "placeName": "Wayanad ",
        "scientificName": "Madhuca longifolia (Koenig) Macbr."
    },
    {
        "placeName": "Wayanad ",
        "scientificName": "Magnolia champaca (L.) Baill. ex Pierre"
    },
    {
        "placeName": "Wayanad ",
        "scientificName": "Mangifera indica L."
    },
    {
        "placeName": "Wayanad ",
        "scientificName": "Melia azedarach L."
    },
    {
        "placeName": "Wayanad ",
        "scientificName": "Miliusa tomentosa (Roxb.) Finet and Gagnep."
    },
    {
        "placeName": "Wayanad ",
        "scientificName": "Mitragyna parvifolia (Roxb.) Korth."
    },
    {
        "placeName": "Wayanad ",
        "scientificName": "Persea macrantha (Nees) Kosterm."
    },
    {
        "placeName": "Wayanad ",
        "scientificName": "Phyllanthus emblica L."
    },
    {
        "placeName": "Wayanad ",
        "scientificName": "Phyllanthus indofischeri Bennet"
    },
    {
        "placeName": "Wayanad ",
        "scientificName": "Pongamia pinnata (L.) Pierre"
    },
    {
        "placeName": "Wayanad ",
        "scientificName": "Psydrax umbellata (Wight) Bridson"
    },
    {
        "placeName": "Wayanad ",
        "scientificName": "Pterocarpus marsupium Roxb."
    },
    {
        "placeName": "Wayanad ",
        "scientificName": "Radermachera xylocarpa (Roxb.) K.Schum."
    },
    {
        "placeName": "Wayanad ",
        "scientificName": "Salix tetrasperma Roxb."
    },
    {
        "placeName": "Wayanad ",
        "scientificName": "Schleichera oleosa (Lour.) Oken"
    },
    {
        "placeName": "Wayanad ",
        "scientificName": "Schrebera swietenioides Roxb."
    },
    {
        "placeName": "Wayanad ",
        "scientificName": "Scolopia crenata (Wight and Arn.) Clos"
    },
    {
        "placeName": "Wayanad ",
        "scientificName": "Semecarpus anacardium L. f."
    },
    {
        "placeName": "Wayanad ",
        "scientificName": "Shorea roxburghii G. Don"
    },
    {
        "placeName": "Wayanad ",
        "scientificName": "Stereospermum colais (Buch.-Ham.Ex Dillwyn) Mabb."
    },
    {
        "placeName": "Wayanad ",
        "scientificName": "Stereospermum suaveolens (G. Don) DC."
    },
    {
        "placeName": "Wayanad ",
        "scientificName": "Syzygium cumini (L.) Skeels"
    },
    {
        "placeName": "Wayanad ",
        "scientificName": "Syzygium zeylanicum (L.) DC."
    },
    {
        "placeName": "Wayanad ",
        "scientificName": "Tamarindus indica L."
    },
    {
        "placeName": "Wayanad ",
        "scientificName": "Tamilnadia uliginosa (Retz.) Tirveng.and Sastre"
    },
    {
        "placeName": "Wayanad ",
        "scientificName": "Tectona grandis L. f."
    },
    {
        "placeName": "Wayanad ",
        "scientificName": "Terminalia bellirica (Gaertn.) Roxb."
    },
    {
        "placeName": "Wayanad ",
        "scientificName": "Terminalia chebula Retz."
    },
    {
        "placeName": "Wayanad ",
        "scientificName": "Terminalia elliptica Willd."
    },
    {
        "placeName": "Wayanad ",
        "scientificName": "Terminalia paniculata Roth"
    },
    {
        "placeName": "Wayanad ",
        "scientificName": "Toona ciliata Roem."
    },
    {
        "placeName": "Wayanad ",
        "scientificName": "Trewia nudiflora L."
    },
    {
        "placeName": "Wayanad ",
        "scientificName": "Vitex altissima L. f."
    },
    {
    "placeName": "Silent Valley",
    "scientificName": "Actinodaphne hookerii"
  },
  {
    "placeName": "Silent Valley",
    "scientificName": "Adina cordifolia"
  },
  {
    "placeName": "Silent Valley",
    "scientificName": "Anogeissus latifolia"
  },
  {
    "placeName": "Silent Valley",
    "scientificName": "Bambusa arundinacea"
  },
  {
    "placeName": "Silent Valley",
    "scientificName": "Berberis tinctoria"
  },
  {
    "placeName": "Silent Valley",
    "scientificName": "Bischofia javanica"
  },
  {
    "placeName": "Silent Valley",
    "scientificName": "Bothriocloa pertusa"
  },
  {
    "placeName": "Silent Valley",
    "scientificName": "Bulbophyllum silentvalliensis"
  },
  {
    "placeName": "Silent Valley",
    "scientificName": "Calamus spp"
  },
  {
    "placeName": "Silent Valley",
    "scientificName": "Calophyllum elatum"
  },
  {
    "placeName": "Silent Valley",
    "scientificName": "Canthium dicoccum"
  },
  {
    "placeName": "Silent Valley",
    "scientificName": "Carpus spp."
  },
  {
    "placeName": "Silent Valley",
    "scientificName": "Cedrela toona"
  },
  {
    "placeName": "Silent Valley",
    "scientificName": "Cinnamomum sulphuratum"
  },
  {
    "placeName": "Silent Valley",
    "scientificName": "Cinnamomum wightii"
  },
  {
    "placeName": "Silent Valley",
    "scientificName": "Clematis wightiana"
  },
  {
    "placeName": "Silent Valley",
    "scientificName": "Cullenia exarillata"
  },
  {
    "placeName": "Silent Valley",
    "scientificName": "Cymbopogon polyneuros"
  },
  {
    "placeName": "Silent Valley",
    "scientificName": "Dalbergia lanceolaria"
  },
  {
    "placeName": "Silent Valley",
    "scientificName": "Dalbergia latifolia"
  },
  {
    "placeName": "Silent Valley",
    "scientificName": "Dendrobium panduratum"
  },
  {
    "placeName": "Silent Valley",
    "scientificName": "Dioscorea"
  },
  {
    "placeName": "Silent Valley",
    "scientificName": "Dodonaea viscosa"
  },
  {
    "placeName": "Silent Valley",
    "scientificName": "E. Arnottiana"
  },
  {
    "placeName": "Silent Valley",
    "scientificName": "E.montana"
  },
  {
    "placeName": "Silent Valley",
    "scientificName": "Elaeagnus latifolia"
  },
  {
    "placeName": "Silent Valley",
    "scientificName": "Elaeocarpus spp."
  },
  {
    "placeName": "Silent Valley",
    "scientificName": "Embelia gardneriana"
  },
  {
    "placeName": "Silent Valley",
    "scientificName": "Emblica officianalis"
  },
  {
    "placeName": "Silent Valley",
    "scientificName": "Eragrostis nigra"
  },
  {
    "placeName": "Silent Valley",
    "scientificName": "Eria tiagii"
  },
  {
    "placeName": "Silent Valley",
    "scientificName": "Eugenia arnotiana"
  },
  {
    "placeName": "Silent Valley",
    "scientificName": "Eugenia calophyllifolia"
  },
  {
    "placeName": "Silent Valley",
    "scientificName": "Eugenia sp"
  },
  {
    "placeName": "Silent Valley",
    "scientificName": "Eugenia spp."
  },
  {
    "placeName": "Silent Valley",
    "scientificName": "Euonymaus crenulatus"
  },
  {
    "placeName": "Silent Valley",
    "scientificName": "Evodia luna-ankenda"
  },
  {
    "placeName": "Silent Valley",
    "scientificName": "Ficus spp."
  },
  {
    "placeName": "Silent Valley",
    "scientificName": "Garcinia"
  },
  {
    "placeName": "Silent Valley",
    "scientificName": "Gaultheria fragrantissima"
  },
  {
    "placeName": "Silent Valley",
    "scientificName": "Gaultheria frangitissima"
  },
  {
    "placeName": "Silent Valley",
    "scientificName": "Glochidion neilgherrense"
  },
  {
    "placeName": "Silent Valley",
    "scientificName": "Glochidium sp."
  },
  {
    "placeName": "Silent Valley",
    "scientificName": "Gordonia obtusa"
  },
  {
    "placeName": "Silent Valley",
    "scientificName": "Hedyotis hirsutissima"
  },
  {
    "placeName": "Silent Valley",
    "scientificName": "Holoptelea integrifolia"
  },
  {
    "placeName": "Silent Valley",
    "scientificName": "Hopea parviflora"
  },
  {
    "placeName": "Silent Valley",
    "scientificName": "Hypericum mysorense"
  },
  {
    "placeName": "Silent Valley",
    "scientificName": "Ilex wightiana"
  },
  {
    "placeName": "Silent Valley",
    "scientificName": "Impatiens spp."
  },
  {
    "placeName": "Silent Valley",
    "scientificName": "Ipsea malabarica"
  },
  {
    "placeName": "Silent Valley",
    "scientificName": "Ipsea malabaricai"
  },
  {
    "placeName": "Silent Valley",
    "scientificName": "Ischaemum pilosum"
  },
  {
    "placeName": "Silent Valley",
    "scientificName": "Kydia calycina"
  },
  {
    "placeName": "Silent Valley",
    "scientificName": "Litsea stockii,"
  },
  {
    "placeName": "Silent Valley",
    "scientificName": "Litsea wightiana"
  },
  {
    "placeName": "Silent Valley",
    "scientificName": "Loranthus spp."
  },
  {
    "placeName": "Silent Valley",
    "scientificName": "Macaranga indica"
  },
  {
    "placeName": "Silent Valley",
    "scientificName": "Macaranga peltata"
  },
  {
    "placeName": "Silent Valley",
    "scientificName": "Maesa indica"
  },
  {
    "placeName": "Silent Valley",
    "scientificName": "Mahonia leschenaultia"
  },
  {
    "placeName": "Silent Valley",
    "scientificName": "Mahonia leschenaultii"
  },
  {
    "placeName": "Silent Valley",
    "scientificName": "Mallotus philippensis"
  },
  {
    "placeName": "Silent Valley",
    "scientificName": "Meliosma wightii"
  },
  {
    "placeName": "Silent Valley",
    "scientificName": "Mesua ferrea"
  },
  {
    "placeName": "Silent Valley",
    "scientificName": "Michelia nilgirica"
  },
  {
    "placeName": "Silent Valley",
    "scientificName": "Murdannia lanceolata"
  },
  {
    "placeName": "Silent Valley",
    "scientificName": "Nostolachma crassifolia"
  },
  {
    "placeName": "Silent Valley",
    "scientificName": "Ochlandra sp"
  },
  {
    "placeName": "Silent Valley",
    "scientificName": "Ochlandra spp"
  },
  {
    "placeName": "Silent Valley",
    "scientificName": "Ochlandra travancorica"
  },
  {
    "placeName": "Silent Valley",
    "scientificName": "Ochlandra wightii"
  },
  {
    "placeName": "Silent Valley",
    "scientificName": "Olea dioica"
  },
  {
    "placeName": "Silent Valley",
    "scientificName": "Palaquium ellipticum"
  },
  {
    "placeName": "Silent Valley",
    "scientificName": "Panicum"
  },
  {
    "placeName": "Silent Valley",
    "scientificName": "Phoenix humilis"
  },
  {
    "placeName": "Silent Valley",
    "scientificName": "Photinia montana"
  },
  {
    "placeName": "Silent Valley",
    "scientificName": "Piper"
  },
  {
    "placeName": "Silent Valley",
    "scientificName": "Polyalthia fragrans"
  },
  {
    "placeName": "Silent Valley",
    "scientificName": "Psychotria congesta"
  },
  {
    "placeName": "Silent Valley",
    "scientificName": "Pteridium aquilinum"
  },
  {
    "placeName": "Silent Valley",
    "scientificName": "Pterocarpus marsupium"
  },
  {
    "placeName": "Silent Valley",
    "scientificName": "Rhamnus wightii,"
  },
  {
    "placeName": "Silent Valley",
    "scientificName": "Rhododendren nilagiricum"
  },
  {
    "placeName": "Silent Valley",
    "scientificName": "Rhododendrom nilgiricum"
  },
  {
    "placeName": "Silent Valley",
    "scientificName": "Rhodomyrtus"
  },
  {
    "placeName": "Silent Valley",
    "scientificName": "Rosa leschenaultiana"
  },
  {
    "placeName": "Silent Valley",
    "scientificName": "Rubus spp."
  },
  {
    "placeName": "Silent Valley",
    "scientificName": "Salmalia malabarica"
  },
  {
    "placeName": "Silent Valley",
    "scientificName": "Schefflera spp."
  },
  {
    "placeName": "Silent Valley",
    "scientificName": "Schleichera oleosa"
  },
  {
    "placeName": "placeName",
    "scientificName": "scientificName"
  },
  {
    "placeName": "Silent Valley",
    "scientificName": "Solanum"
  },
  {
    "placeName": "Silent Valley",
    "scientificName": "Sterculia guttata"
  },
  {
    "placeName": "Silent Valley",
    "scientificName": "Strobilanthes spp"
  },
  {
    "placeName": "Silent Valley",
    "scientificName": "Strobilanthes spp."
  },
  {
    "placeName": "Silent Valley",
    "scientificName": "Strobilanthes spp."
  },
  {
    "placeName": "Silent Valley",
    "scientificName": "Symplocos laurina"
  },
  {
    "placeName": "Silent Valley",
    "scientificName": "Syzygium"
  },
  {
    "placeName": "Silent Valley",
    "scientificName": "T. triandra"
  },
  {
    "placeName": "Silent Valley",
    "scientificName": "Terminalia tomentosa"
  },
  {
    "placeName": "Silent Valley",
    "scientificName": "Ternstroemia gymnanthera"
  },
  {
    "placeName": "Silent Valley",
    "scientificName": "Tetrameles nudiflora"
  },
  {
    "placeName": "Silent Valley",
    "scientificName": "Themeda cymbarica"
  },
  {
    "placeName": "Silent Valley",
    "scientificName": "Thunbergia mysorensis"
  },
  {
    "placeName": "Silent Valley",
    "scientificName": "Toddalia asiatica"
  },
  {
    "placeName": "Silent Valley",
    "scientificName": "Tripogon bromoides"
  },
  {
    "placeName": "Silent Valley",
    "scientificName": "Turpinia cochinchinensis,"
  },
  {
    "placeName": "Silent Valley",
    "scientificName": "Vaccinium leschenaultia"
  },
  {
    "placeName": "Silent Valley",
    "scientificName": "Vanda thwaitesii"
  },
  {
    "placeName": "Silent Valley",
    "scientificName": "Vateria indica"
  },
  {
    "placeName": "Silent Valley",
    "scientificName": "Vernonia monosis"
  },
  {
    "placeName": "Silent Valley",
    "scientificName": "Viburnum erubescence"
  },
  {
    "placeName": "Silent Valley",
    "scientificName": "Vitex altissima"
  },
  {
    "placeName": "Silent Valley",
    "scientificName": "Wendlandia notoniana"
  },
  {
    "placeName": "Silent Valley",
    "scientificName": "Xantolis tomentosa"
  }
    
]
